CAAN,BUILDINGNAME,NAME_SHORT,FLOORCOUNT,REGION,CAMPUS,UNDERGROUND,BLDGAREA,BLDGTYPE,OPERHOURS,OPERDATE,ACCESSTYPE,CONDITION,OWNEDBY,MAINTBY,BLDGHEIGHT,SUBFEED,ADDRESS,CITY,STATE,COUNTY,COUNTRY,ZIPCODE,RMSTANDARD,BLDGUSE_P,LAT_Y,LONG_X,NORTH,EAST,Shape__Area,Shape__Length,GlobalID,CreationDate,Creator,EditDate,Editor
1985,2372 Ellsworth St.,2372 Ellsworth St.,1,,South,0,,,,,,,1,1,,,2372 Ellsworth St.,Berkeley,CA,Alameda,USA,94704,S,300,-122.263723230083,37.8667921794646,2142876.1894767,6052576.69698606,1900.84375,197.9293217390812,{5587687D-5580-484F-B2B2-D72707348BEC},2020-11-03 22:11:44.000001,1678122_CAL,2020-11-03 22:11:44.000001,1678122_CAL
1590,2298 Ellsworth St.,2298 Ellsworth St.,,,South,0,,,,,,,1,1,,,2298 Ellsworth St.,Berkeley,CA,Alameda,USA,94704,,,-122.263704478523,37.8669750330524,2142942.65766643,6052583.36366562,2856.4267578125,235.9634957850229,{94A41151-356E-43B4-B306-0BAA4E293442},2020-11-03 22:11:44.000001,1678122_CAL,2020-11-03 22:11:44.000001,1678122_CAL
1002,Cleary Hall,2424 Channing Way,5,,South,0,,,,,,,1,1,,,2424 Channing Way,Berkeley,CA,Alameda,USA,94704,N,900,-122.25951700996,37.8664130850494,2142715.32091561,6053788.07206663,10256.59765625,637.286793951391,{E380C1F4-FD3C-4870-A200-3B1B48D704E2},2020-11-03 22:11:44.000001,1678122_CAL,2020-11-03 22:11:44.000001,1678122_CAL
1009,Haste Street Child Development Center,2339 Haste Street,2,,South,0,,,,,,,1,1,,,2339 Haste Street,Berkeley,CA,Alameda,USA,94704,N,600,-122.261605563497,37.8659330774092,2142551.90917967,6053181.99511394,8496.17578125,554.035661345337,{0B2149BA-D42E-4E1A-A8A1-17443D3F1E4A},2020-11-03 22:11:44.000001,1678122_CAL,2020-11-03 22:11:44.000001,1678122_CAL
1259A,2427 Dwight Way,2427 Dwight Way,,,South,0,,,,,,,1,1,,,2427 Dwight Way,Berkeley,CA,Alameda,USA,94704,,,-122.259431180822,37.8652580736086,2142294.35811448,6053804.93725215,7861.353515625,505.6415688098373,{35FD8403-454F-4DCB-879A-C61878BC8715},2020-11-03 22:11:44.000001,1678122_CAL,2020-11-03 22:11:44.000001,1678122_CAL
1430,A & E Building,A & E Bldg,3,4,Central,0,,,,,,,1,1,,2,Barrow Lane,Berkeley,CA,Alameda,USA,94720,S,300,-122.25879632418,37.870169855186,2144079.11326699,6054021.779585,1899.4443359375,190.6716118101502,{E68C5438-AB8E-4264-933A-F92AAAF550A3},2020-11-03 22:11:44.000001,1678122_CAL,2020-11-03 22:11:44.000001,1678122_CAL
1360,Haas Pavilion,Haas Pavilion,6,6,Central,0,,,,,,,1,1,,2,115 Haas Pavilion,Berkeley,CA,Alameda,USA,94720,N,500,-122.262219366848,37.8694008998359,2143817.75084609,6053028.61732412,78662.2744140625,1384.9896194378096,{96764B7C-3884-44B9-8C87-53DEB5BCA26C},2020-11-03 22:11:44.000001,1678122_CAL,2020-11-03 22:11:44.000001,1678122_CAL
1791,Martin Luther King Junior Student Union,MLK Student Union,6,6,Central,0,,,,,,,1,1,,2,2495 Bancroft Way,Berkeley,CA,Alameda,USA,94720,N,000,-122.259700519523,37.8691520108248,2143713.45931388,6053753.86023236,30858.5390625,736.8973636725626,{D3627A6C-6F51-425B-AC93-97D78875A8E5},2020-11-03 22:11:44.000001,1678122_CAL,2020-11-03 22:11:44.000001,1678122_CAL
1154,Eshleman Hall,Eshleman Hall,,6,Central,0,,,,,,,1,1,,2,2465 Bancroft Way,Berkeley,CA,Alameda,USA,94720,,,-122.26038516666,37.8687662852237,2143576.74737697,6053553.62639663,13555.5537109375,602.8636976943624,{59ABCEF0-58A0-47DF-8E18-18AE32230B0B},2020-11-03 22:11:44.000001,1678122_CAL,2020-11-03 22:11:44.000001,1678122_CAL
1286,University Health Services-Tang Center,Tang Center,4,6,South,0,,,,,,,1,1,,,222 Bancroft Way,Berkeley,CA,Alameda,USA,94704,N,800,-122.264334620496,37.8676255285576,2143182.90733475,6052405.96227518,29402.712890625,962.5263543541197,{7BA8FD07-A67B-4013-A956-3C5974FB9370},2020-11-03 22:11:44.000001,1678122_CAL,2020-11-03 22:11:44.000001,1678122_CAL
1298,Bancroft Library,Bancroft Library,7,3,Central,0,,,,,,,1,1,,2,Campanile Way,Berkeley,CA,Alameda,USA,94720,N,400,-122.258856779803,37.8722709314086,2144844.36658704,6054018.7099629,21660.2666015625,609.7613813255207,{76E49C34-1C6A-4A8A-B4BE-D165246E7AAE},2020-11-03 22:11:44.000001,1678122_CAL,2020-11-03 22:11:44.000001,1678122_CAL
1921,Office of Public Affairs,2200 Bancroft Way,2,2,South,0,,,,,,,1,1,,,2200 Bancroft Way,Berkeley,CA,Alameda,USA,94704,S,300,-122.265615948889,37.8673973891826,2143106.82547872,6052034.59130068,6498.7900390625,411.9624876025887,{D03EB24E-4BED-4134-A3E2-EC30FE161630},2020-11-03 22:11:44.000001,1678122_CAL,2020-11-03 22:11:44.000001,1678122_CAL
1803,Residence Halls Unit 3,2400 Durant Ave.,2,,South,0,,,,,,,1,1,,2,2400 Durant Ave,Berkeley,CA,Alameda,USA,94704,N,900,-122.260376079818,37.8671667033098,2142994.349117,6053545.2934233,30782.3720703125,716.865453265507,{8537BC99-033A-40DB-A3A3-37224FBF872D},2020-11-03 22:11:44.000001,1678122_CAL,2020-11-03 22:11:44.000001,1678122_CAL
1270,California Hall,California Hall,4,3,Central,0,,,,,,,1,1,,2,Sather Road,Berkeley,CA,Alameda,USA,94720,S,300,-122.260380087008,37.8718909740636,2144714.30463871,6053576.49356687,15656.265625,564.0402485472113,{15FA76EE-4A47-4506-9811-356FFCE31064},2020-11-03 22:11:44.000001,1678122_CAL,2020-11-03 22:11:44.000001,1678122_CAL
1374,Central Heating Plant,Central Heating Plant,5,6,Central,0,,,,,,,1,1,,2,209 Frank Schlessinger Wy,Berkeley,CA,Alameda,USA,94720,N,700,-122.263459293035,37.870293958738,2144149.62234546,6052676.89827148,14544.4775390625,598.268163579548,{BBEE2DA7-0EDD-41CF-9CDF-5D9B0E63F02D},2020-11-03 22:11:44.000001,1678122_CAL,2020-11-03 22:11:44.000001,1678122_CAL
1418,Dwinelle Annex,Dwinelle Annex,2,3,Central,0,,,,,,,1,1,,2,South Circle,Berkeley,CA,Alameda,USA,94720,S,300,-122.261295609165,37.8703413015635,2144155.09748427,6053301.6606562,6181.453125,401.01871335174235,{64FE9AD6-DB97-4E5B-843F-B8899180F6FD},2020-11-03 22:11:44.000001,1678122_CAL,2020-11-03 22:11:44.000001,1678122_CAL
1215,Alumni House,Alumni House,2,6,Central,0,,,,,,,1,1,,2,Spieker Plaza,Berkeley,CA,Alameda,USA,94720,S,300,-122.261298316082,37.8697208475044,2143929.22764689,6053296.6277713,13031.2275390625,719.5779795337469,{40F60A5B-56DB-4AC8-B5BA-76D1D12C5C01},2020-11-03 22:11:44.000001,1678122_CAL,2020-11-03 22:11:44.000001,1678122_CAL
1802,Zellerbach Hall,Zellerbach Hall,7,6,Central,0,,,,,,,1,1,,2,101 Zellerbach Hall,Berkeley,CA,Alameda,USA,94720,N,600,-122.260976339067,37.8691032584114,2143702.63723084,6053385.31955944,47796.224609375,1024.6272010555183,{56ED35C1-6964-43D0-898C-041C06E4E507},2020-11-03 22:11:44.000001,1678122_CAL,2020-11-03 22:11:44.000001,1678122_CAL
1784,Chavez Student Center,Chavez Student Center,4,6,Central,0,,,,,,,1,1,,2,Sather Road,Berkeley,CA,Alameda,USA,94720,N,600,-122.260228179815,37.8697521268774,2143934.80392258,6053605.68510275,26648.0029296875,1081.2844993449698,{F78B9438-078B-4CF5-9E9D-DE215E55074F},2020-11-03 22:11:44.000001,1678122_CAL,2020-11-03 22:11:44.000001,1678122_CAL
1295,Dwinelle Hall,Dwinelle Hall,8,3,Central,0,,,,,,,1,1,,2,South Drive,Berkeley,CA,Alameda,USA,94720,S,100,-122.260618569768,37.8706951922528,2144280.25892218,6053499.47817162,62286.939453125,1993.4317470319747,{1F95AB8E-FFB1-4B14-B27E-F6D242C926A8},2020-11-03 22:11:44.000001,1678122_CAL,2020-11-03 22:11:44.000001,1678122_CAL
1227,Durant Hall,Durant Hall,4,3,Central,0,,,,,,,1,1,,2,Dwinelle Path,Berkeley,CA,Alameda,USA,94720,S,300,-122.260143666458,37.8712592519249,2144483.0342208,6053640.39676815,6500.921875,323.11208309395136,{1935A7B2-68C4-4945-927D-60A6E4E4A747},2020-11-03 22:11:44.000001,1678122_CAL,2020-11-03 22:11:44.000001,1678122_CAL
1552,Wheeler Hall,Wheeler Hall,7,3,Central,0,,,,,,,1,1,,2,Wheeler Hall,Berkeley,CA,Alameda,USA,94720,S,100,-122.25916960025,37.871310964384,2144496.57452774,6053921.86215086,36936.0966796875,829.2768286031558,{DACE94B0-4113-465F-8F50-4BB6EB9314E7},2020-11-03 22:11:44.000001,1678122_CAL,2020-11-03 22:11:44.000001,1678122_CAL
1210,Sproul Hall,Sproul Hall,6,4,Central,0,,,,,,,1,1,,2,Barrow Lane,Berkeley,CA,Alameda,USA,94720,S,300,-122.258786754405,37.8695997812999,2143871.51806432,6054020.64058977,29520.1982421875,909.7114172238125,{BAA8D988-6535-4684-BE83-A9534A37E68D},2020-11-03 22:11:44.000001,1678122_CAL,2020-11-03 22:11:44.000001,1678122_CAL
1406,Valley Life Sciences Building,VLSB,8,,Central,0,,,,,,,1,,,1,Harmon Way,Berkeley,CA,Alameda,USA,94720,,,-122.262135627871,37.8714856092502,2144576.26233337,6053067.07676337,92419.0634765625,1933.5818396924976,{0A2F1B42-CA18-40BB-B3E1-8C575B157496},2020-11-03 22:11:44.000001,1678122_CAL,2020-11-03 22:11:44.000001,1678122_CAL
1225,Weill Hall,Weill Hall,7,6,Central,0,,,,,,,1,1,,1,Weill Hall,Berkeley,CA,Alameda,USA,94720,S,200,-122.263262341375,37.8714112410637,2144555.31246636,6052741.40344506,30850.6240234375,781.9038186479386,{C2F66F60-9100-4B6B-B4E9-BDEF150B224F},2020-11-03 22:11:44.000001,1678122_CAL,2020-11-03 22:11:44.000001,1678122_CAL
1269,Haz Mat Facility,Haz Mat Facility,,6,Central,0,,,,,,,1,1,,2,Frank Schlessinger Way,Berkeley,CA,Alameda,USA,94720,,,,,,,14230.935546875,551.9173119101456,{90F212EC-5FCE-48A5-AE71-28A7985BB39D},2020-11-03 22:11:44.000001,1678122_CAL,2020-11-03 22:11:44.000001,1678122_CAL
1318,Evans Diamond Batting Shed,Batting Shed,1,,Central,0,,,,,,,1,1,,2,Frank Schlessinger Way,Berkeley,CA,Alameda,USA,94720,S,700,-122.263947814023,37.8699391926926,2144023.12249161,6052533.47669004,4240.7880859375,301.07481618648234,{9D9571E6-3638-466F-927D-3635FC7401DA},2020-11-03 22:11:44.000001,1678122_CAL,2020-11-03 22:11:44.000001,1678122_CAL
1365,Spieker Aquatic Complex East,Spieker Aquatic Complex E,3,,Central,0,,,,,,,1,1,,2,2301 Bancroft Way,Berkeley,CA,Alameda,USA,94720,N,500,-122.261806184928,37.868754091008,2143580.02623782,6053143.42925563,5794.818359375,397.8773144323378,{7F89DEE1-2447-4D34-ADC6-26D481D1FE4A},2020-11-03 22:11:44.000001,1678122_CAL,2020-11-03 22:11:44.000001,1678122_CAL
1795,Bancroft Dance Studio,Bancroft Dance Studio,2,6,Central,0,,,,,,,1,1,,2,2401 Bancroft Way,Berkeley,CA,Alameda,USA,94720,S,300,-122.261184501277,37.868699733585,2143556.85923579,6053322.47806916,4586.62890625,320.5416539636972,{1FCF0F70-BD9E-41F7-85A0-A30E3CA3EC26},2020-11-03 22:11:44.000001,1678122_CAL,2020-11-03 22:11:44.000001,1678122_CAL
1924,Career Center,Career Center,4,2,South,0,,,,,,,1,1,,,2440 Bancroft Way,Berkeley,CA,Alameda,USA,94704,N,600,-122.260429482362,37.8682721187561,2143397.08002619,6053537.45208242,11740.51171875,561.4440046607954,{77D1381C-9944-42D1-9684-4772A759622A},2020-11-03 22:11:44.000001,1678122_CAL,2020-11-03 22:11:44.000001,1678122_CAL
1301,Doe Memorial Library,Doe Memorial Library,5,3,Central,0,,,,,,,1,1,,2,Library Court,Berkeley,CA,Alameda,USA,94720,N,400,-122.259500349117,37.8721937464497,2144819.75805267,6053832.45266996,55970.4677734375,986.5342235417952,{E4425538-181B-4684-8251-5F0E4C911264},2020-11-03 22:11:44.000001,1678122_CAL,2020-11-03 22:11:44.000001,1678122_CAL
1017,BAMPFA,BAMPFA,,5,Perimeter,0,,,,,,,1,1,,"3, 7",2155 Center Street,Berkeley,CA,Alameda,USA,94704,,,-122.266404057537,37.8709136965894,2144391.27532583,6051831.30038245,37101.75390625,878.1427292993008,{44FD7E26-9EAD-4A55-9BEF-A894BF73C696},2020-11-03 22:11:44.000001,1678122_CAL,2020-11-03 22:11:44.000001,1678122_CAL
1014,2154-60 Univesity Ave.,2154-60 Univesity Ave.,2,,Perimeter,0,,,,,,,1,1,,,2154-60 Univesity Ave.,Berkeley,CA,Alameda,USA,94704,N,600,-122.267282851164,37.8719900278924,2144787.91657049,6051585.08406482,25442.8603515625,880.3763457612794,{5D47AD2A-598F-4D1B-8591-CE337A695C71},2020-11-03 22:11:44.000001,1678122_CAL,2020-11-03 22:11:44.000001,1678122_CAL
1594,University Hall,University Hall,9,5,Perimeter,0,,,,,,,1,1,,"3, 7",2018 Oxford St,Berkeley,CA,Alameda,USA,94704,S,300,-122.266510645917,37.871911637048,2144755.16931896,6051807.39808541,29624.0166015625,937.9465218541318,{4DA9DF38-138A-4E35-ACD1-3E72C379C026},2020-11-03 22:11:44.000001,1678122_CAL,2020-11-03 22:11:44.000001,1678122_CAL
1902,Banway Building,Banway Building,5,2,Perimeter,0,,,,,,,1,1,,,2111 Bancroft Way,Berkeley,CA,Alameda,USA,94704,S,300,-122.266894350906,37.8679016298299,2143297.36513292,6051669.09734938,9329.033203125,412.95745064245205,{8AC4AD4C-4447-4850-9474-E4A8D62558F7},2020-11-03 22:11:44.000001,1678122_CAL,2020-11-03 22:11:44.000001,1678122_CAL
1150,C.V. Starr East Asian Library,Starr East Asian Library,4,3,Central,0,,,,,,,1,1,,"3, 7",University Drive,Berkeley,CA,Alameda,USA,94720,N,400,-122.260377279232,37.8735508467837,2145318.58882692,6053588.67212892,19601.388671875,616.033652745436,{9FB0DDC9-7080-4A7B-93AB-6C29C53050C8},2020-11-03 22:11:44.000001,1678122_CAL,2020-11-03 22:11:44.000001,1678122_CAL
1032,Jacobs Hall,Jacobs Hall,4,1,Perimeter,0,,,,,,,1,1,,5,2530 Ridge Road,Berkeley,CA,Alameda,USA,94709,S,200,-122.258803837222,37.8760366644739,2146215.04673259,6054059.75712421,7623.056640625,376.7633375504049,{9DA2F79F-CC41-4D75-8D63-16B31FA7B9C2},2020-11-03 22:11:44.000001,1678122_CAL,2020-11-03 22:11:44.000001,1678122_CAL
1321,McLaughlin Hall,McLaughlin Hall,6,1,Central,0,,,,,,,1,1,,5,McLaughlin Hall,Berkeley,CA,Alameda,USA,94720,S,200,-122.259045075659,37.8738333228826,2145414.19823029,6053975.06191571,10373.658203125,445.47858783984987,{0FF9583F-4CF0-4323-8D65-AE76FDD02C06},2020-11-03 22:11:44.000001,1678122_CAL,2020-11-03 22:11:44.000001,1678122_CAL
1444,Li Ka-Shing Center,Li Ka-Shing,9,5,Central,0,,,,,,,1,1,,"3, 7",2535 Oxford St,Berkeley,CA,Alameda,USA,94720,S,200,-122.265336040682,37.8729878555744,2145140.58357663,6052153.77262598,39340.712890625,1107.41212781916,{C8CB38B1-0314-499C-8081-5F70123CAD0E},2020-11-03 22:11:44.000001,1678122_CAL,2020-11-03 22:11:44.000001,1678122_CAL
1095,Warren Hall,Warren Hall,4,5,Perimeter,0,,,,,,,1,1,,"3, 7",2195 Hearst Ave.,Berkeley,CA,Alameda,USA,94709,S,500,-122.266976076391,37.8743949143538,2145661.77528023,6051690.14979296,21656.1162109375,730.675070127442,{5A9AF992-8B6D-43E3-BF1F-1F71CBA482B8},2020-11-03 22:11:44.000001,1678122_CAL,2020-11-03 22:11:44.000001,1678122_CAL
1299,Moffitt Library,Moffitt Library,5,3,Central,0,,,,,,,1,1,,"3, 7",350 Moffitt Library,Berkeley,CA,Alameda,USA,94720,N,400,-122.26079690932,37.8725828009367,2144968.4370011,6053460.94067707,37921.3896484375,911.9478466190069,{695C6EB4-B7E9-4DDC-89FE-8904BCFD49B2},2020-11-03 22:11:44.000001,1678122_CAL,2020-11-03 22:11:44.000001,1678122_CAL
1322,Blum Hall,Blum Hall,4,1,Central,0,,,,,,,1,1,,5,Hearst Avenue,Berkeley,CA,Alameda,USA,94720,S,300,-122.258952722781,37.8749771464602,2145830.12203731,6054009.54130902,9110.3115234375,588.3779124567856,{EE229DCF-C291-4D56-A5C6-52B3490B1337},2020-11-03 22:11:44.000001,1678122_CAL,2020-11-03 22:11:44.000001,1678122_CAL
1762,McCone Hall,McCone Hall,7,1,Central,0,,,,,,,1,1,,5,Haviland Path,Berkeley,CA,Alameda,USA,94720,S,200,-122.259684133946,37.8741308161856,2145525.97206402,6053792.67559066,24817.5078125,723.4826482151694,{67B5EE75-A382-440A-81C9-C09FEED98258},2020-11-03 22:11:44.000001,1678122_CAL,2020-11-03 22:11:44.000001,1678122_CAL
1439,University House,University House,4,3,Central,0,,,,,,,1,1,,5,Oxford St.,Berkeley,CA,Alameda,USA,94720,N,600,-122.262227297543,37.8744934711068,2145671.83172669,6053061.28418412,5862.185546875,335.25187276254945,{9A33DAD6-DE0E-4904-88EB-FBFCC8C42068},2020-11-03 22:11:44.000001,1678122_CAL,2020-11-03 22:11:44.000001,1678122_CAL
1264,Wheeler Brain Imaging Center North,Wheeler Magnet North,1,,Central,0,,,,,,,1,1,,,Bayard Rustin Way,Berkeley,CA,Alameda,USA,94720,S,200,-122.263030377574,37.8737311646351,2145398.65062631,6052824.25986232,838.2861328125,147.3558462350278,{1090C9C6-3B9D-42BC-B95B-2DEE79D63DD2},2020-11-03 22:11:44.000001,1678122_CAL,2020-11-03 22:11:44.000001,1678122_CAL
1264,Wheeler Brain Imaging Center South,Wheeler Magnet North,1,5,Central,0,,,,,,,1,1,,,Bayard Rustin Way,Berkeley,CA,Alameda,USA,94720,S,200,-122.263030377574,37.8737311646351,2145398.65062631,6052824.25986232,766.3134765625,137.9763910400549,{24300B11-C061-47CD-9A7E-365C171C3061},2020-11-03 22:11:44.000001,1678122_CAL,2020-11-03 22:11:44.000001,1678122_CAL
1355,Giannini Hall,Giannini Hall,4,5,Central,0,,,,,,,1,1,,"3, 7",Wickson Loop,Berkeley,CA,Alameda,USA,94720,S,200,-122.262377290774,37.8735415276803,2145326.06024179,6053011.43149984,20498.0625,753.3117261000643,{1AD929E2-B444-4ECA-9D43-C802ED93EDDA},2020-11-03 22:11:44.000001,1678122_CAL,2020-11-03 22:11:44.000001,1678122_CAL
1202,Wellman Hall,Wellman Hall,5,5,Central,0,,,,,,,1,1,,"3, 7",Wellman Hall,Berkeley,CA,Alameda,USA,94720,S,200,-122.26277484843,37.8731221142846,2145175.52839633,6052893.82491642,12991.7392578125,502.16706277231384,{5FAC43B6-CD9F-4A7D-A69A-5EFE08ACBBE6},2020-11-03 22:11:44.000001,1678122_CAL,2020-11-03 22:11:44.000001,1678122_CAL
1371,Haviland Hall,Haviland Hall,5,3,Central,0,,,,,,,1,1,,5,Library Front Road,Berkeley,CA,Alameda,USA,94720,S,200,-122.261069972697,37.873733112514,2145388.70643138,6053390.01884127,13137.61328125,508.5769754725995,{B9F8501F-A3A5-48F2-848A-D556230535E9},2020-11-03 22:11:44.000001,1678122_CAL,2020-11-03 22:11:44.000001,1678122_CAL
1382,Morgan Hall,Morgan Hall,5,5,Central,0,,,,,,,1,1,,"3, 7",Macfarlane Lane,Berkeley,CA,Alameda,USA,94720,S,200,-122.264229681164,37.8733322284113,2145259.93553986,6052475.41937924,16680.1884765625,708.7285913712384,{5628A7EA-927C-4BD0-AF24-756BD3F3E62F},2020-11-03 22:11:44.000001,1678122_CAL,2020-11-03 22:11:44.000001,1678122_CAL
1376,Hilgard Hall,Hilgard Hall,4,5,Central,0,,,,,,,1,1,,"3, 7",Wickson Loop,Berkeley,CA,Alameda,USA,94720,S,200,-122.263402079887,37.8733003943186,2145243.84393556,6052714.0364159,21822.39453125,759.6044655072851,{FE1E1796-615D-44D7-BF64-C11AA7B40B0D},2020-11-03 22:11:44.000001,1678122_CAL,2020-11-03 22:11:44.000001,1678122_CAL
1793,Barker Hall,Barker Hall,8,5,Central,0,,,,,,,1,1,,"3, 7",Spruce Street,Berkeley,CA,Alameda,USA,94720,S,200,-122.265474825755,37.8739616968308,2145495.87925557,6052120.40992768,14769.4912109375,489.37932897312817,{C69991A5-CD16-4CE3-B424-20E7330DC0A8},2020-11-03 22:11:44.000001,1678122_CAL,2020-11-03 22:11:44.000001,1678122_CAL
1796,Koshland Hall,Koshland Hall,7,5,Central,0,,,,,,,1,1,,"3, 7",Macfarlane Lane,Berkeley,CA,Alameda,USA,94720,S,200,-122.264882718009,37.8739339005863,2145482.53623884,6052291.09248733,24193.20703125,786.6206848052966,{366BC86A-94C8-412D-90AB-CCACD83D11FA},2020-11-03 22:11:44.000001,1678122_CAL,2020-11-03 22:11:44.000001,1678122_CAL
1789,Genetics & Plant Biology Building,Genetics & Plant Biology,3,5,Central,0,,,,,,,1,1,,"3, 7",Bayard Rustin Way,Berkeley,CA,Alameda,USA,94720,S,200,-122.264755103787,37.8734350278325,2145300.22045818,6052324.49477177,12093.3916015625,527.4244475998485,{5A94885C-245C-40A0-A793-473BF6575620},2020-11-03 22:11:44.000001,1678122_CAL,2020-11-03 22:11:44.000001,1678122_CAL
1346,Mulford Hall,Mulford Hall,5,5,Central,0,,,,,,,1,1,,"3, 7",130 Hilgard Way,Berkeley,CA,Alameda,USA,94720,S,200,-122.264493842154,37.8726543842672,2145014.59501609,6052394.53236739,19080.9775390625,786.3236064051503,{998AAEF5-2D11-4878-8B8C-6B4CFFC25AD0},2020-11-03 22:11:44.000001,1678122_CAL,2020-11-03 22:11:44.000001,1678122_CAL
1206,North Gate Hall,North Gate Hall,3,1,Central,0,,,,,,,1,1,,5,Hearst Ave,Berkeley,CA,Alameda,USA,94720,S,200,-122.259623355353,37.8749177784123,2145812.14682174,6053815.60280535,15871.3671875,895.7777817023922,{86A3F310-2EF8-4B1E-B129-19C9043C7C5F},2020-11-03 22:11:44.000001,1678122_CAL,2020-11-03 22:11:44.000001,1678122_CAL
1783,Etcheverry Hall,Etcheverry Hall,7,1,Perimeter,0,,,,,,,1,1,,5,2505 Hearst Avenue,Berkeley,CA,Alameda,USA,94709,S,200,-122.2592746495,37.8756884352298,2146090.82287007,6053921.50798344,22643.4140625,693.537365247562,{ED4CEBBE-5786-4DE6-8930-2C659032987A},2020-11-03 22:11:44.000001,1678122_CAL,2020-11-03 22:11:44.000001,1678122_CAL
1777,Lower Hearst Parking,Lower Hearst Parking,4,,Perimeter,0,,,,,,,1,1,,5,2455 Hearst Ave.,Berkeley,CA,Alameda,USA,94709,,,-122.261411112647,37.8752052055545,2145926.4956541,6053301.65859272,48068.630859375,1044.423904891928,{8CD7729B-DBEF-4491-84F4-FB2E6884A651},2020-11-03 22:11:44.000001,1678122_CAL,2020-11-03 22:11:44.000001,1678122_CAL
1435,Natural Resources Lab,Natural Resources Lab,1,5,Perimeter,0,,,,,,,1,1,,"3, 7",1878 Oxford St,Berkeley,CA,Alameda,USA,94709,S,200,-122.266857794517,37.8748214422118,2145816.41377377,6051727.21602453,6498.2861328125,474.40560904502127,{A10D9401-CD4A-4604-8439-C8DE419497FE},2020-11-03 22:11:44.000001,1678122_CAL,2020-11-03 22:11:44.000001,1678122_CAL
1022,Innovative Genomics Institute Building (IGIB),IGIB,7,5,Perimeter,0,,,,,,,1,1,,"3, 7",2151 Berkeley Way,Berkeley,CA,Alameda,USA,94704,S,200,-122.266941784116,37.873838433636,2145458.99440589,6051696.22032011,22184.9970703125,708.1860141303306,{898771E3-E77D-4AAC-B160-2181EDEC9618},2020-11-03 22:11:44.000001,1678122_CAL,2020-11-03 22:11:44.000001,1678122_CAL
1006,UCB Retirement Center,UCB Retirement Center,3,,Perimeter,0,,,,,,,1,1,,,1925 Walnut St,Berkeley,CA,Alameda,USA,94704,S,300,-122.26680957241,37.8730079711375,2145155.93289823,6051728.66620353,1429.8603515625,151.48679730824168,{6A0F3A23-4B57-44FA-8441-D616B145F90D},2020-11-03 22:11:44.000001,1678122_CAL,2020-11-03 22:11:44.000001,1678122_CAL
3633,Parking and Transit Operations,Parking and Transit Operations,2,,Perimeter,0,,,,,,,1,1,,,2161 University Ave.,Berkeley,CA,Alameda,USA,94704,N,600,-122.266559819935,37.8729085552976,2145118.37832035,6051800.05868583,15615.83203125,726.0486267185598,{A371D20B-B445-41E6-9B9A-BFFA82113EDF},2020-11-03 22:11:44.000001,1678122_CAL,2020-11-03 22:11:44.000001,1678122_CAL
1723,Insectary Greenhouse,Insectary Greenhouse,1,5,Perimeter,0,,,,,,,1,1,,"3, 7",Walnut Street,Berkeley,CA,Alameda,USA,94709,S,200,-122.267240010313,37.8746672367019,2145762.35619516,6051615.85531526,4446.345703125,290.0469353471291,{7B0A0956-87B3-4C0A-AADD-E50E9C35A00C},2020-11-03 22:11:44.000001,1678122_CAL,2020-11-03 22:11:44.000001,1678122_CAL
1530,UC Press,UC Press,,,Perimeter,0,,,,,,,1,1,,,2120 Berkeley Way,Berkeley,CA,Alameda,USA,94704,,,-122.267640917103,37.8729565607563,2145141.74730915,6051488.39604348,8094.578125,359.87983010755937,{181028DB-5D0A-4BB2-BAE7-8EDECCDA3702},2020-11-03 22:11:44.000001,1678122_CAL,2020-11-03 22:11:44.000001,1678122_CAL
1785,Oxford Tract - Genetics & Plant Biology Greenhouse,1741 Walnut St,1,5,Perimeter,0,,,,,,,1,1,,"3, 7",1741 Walnut St,Berkeley,CA,Alameda,USA,94709,N,500,-122.267086502239,37.8757696389252,2146162.86392399,6051667.7341073,17597.830078125,577.3899965937894,{18030C44-4BE2-49EC-A884-3A5FF6C02BDC},2020-11-03 22:11:44.000001,1678122_CAL,2020-11-03 22:11:44.000001,1678122_CAL
1769,RH Unit 2-Davidson Hall,2650 Haste St.,10,,South,0,,,,,,,1,1,,4,2650 Haste St.,Berkeley,CA,Alameda,USA,94704,N,900,-122.254227013907,37.8662786326363,2142637.70640016,6055313.92595187,5662.603515625,362.35103013171204,{AE4ED66A-1B7F-4C09-923F-22F7DDF135C8},2020-11-03 22:11:44.000001,1678122_CAL,2020-11-03 22:11:44.000001,1678122_CAL
1147,RH Unit 2-Towle Hall,2650 Haste St.,9,,South,0,,,,,,,1,1,,4,2650 Haste St.,Berkeley,CA,Alameda,USA,94704,N,900,-122.254674395629,37.8663412773708,2142662.93407436,6055185.2322438,9503.6884765625,612.7482807631161,{6E1B933C-A70B-4FDB-8F34-AB166BA03921},2020-11-03 22:11:44.000001,1678122_CAL,2020-11-03 22:11:44.000001,1678122_CAL
1768,RH Unit 2-Cunningham Hall,2650 Haste St.,10,,South,0,,,,,,,1,1,,4,2650 Haste St.,Berkeley,CA,Alameda,USA,94704,N,900,-122.255273605347,37.8662938682479,2142648.91767588,6055011.96742515,5635.52734375,361.8871723213249,{BDD711DD-3D1C-445D-A439-A9AD4B47ACAE},2020-11-03 22:11:44.000001,1678122_CAL,2020-11-03 22:11:44.000001,1678122_CAL
1064D,Anna Head Alumni Hall Building C,2538 Channing Way,4,2,South,0,,,,,,,1,1,,4,2538 Channing Way,Berkeley,CA,Alameda,USA,94704,S,300,-122.256898841627,37.8667801640892,2142834.76301626,6054546.22333074,6851.255859375,380.2788109026896,{7AFEC38D-783C-4F28-B7DE-C9C677B12FBB},2020-11-03 22:11:44.000001,1678122_CAL,2020-11-03 22:11:44.000001,1678122_CAL
1064C,Anna Head Alumni Hall Building E,2536 Channing Way,2,2,South,0,,,,,,,1,1,,4,2536 Channing Way,Berkeley,CA,Alameda,USA,94704,S,300,-122.257477062509,37.8664330468079,2142711.52410752,6054376.96756757,3227.4697265625,335.387550918583,{D5CC0AFD-B550-42E2-9DCA-627B9D3DE689},2020-11-03 22:11:44.000001,1678122_CAL,2020-11-03 22:11:44.000001,1678122_CAL
1073,Maximino Martinez Commons ,2520 Channing Way,7,,South,0,,,,,,,1,1,,2,2520 Channing Way,Berkeley,CA,Alameda,USA,94704,N,900,-122.257790054596,37.8666879603419,2142806.02548368,6054288.37662813,29669.7197265625,1439.1377111262595,{83B5E078-2BE5-4F01-A6E4-E8963EC80983},2020-11-03 22:11:44.000001,1678122_CAL,2020-11-03 22:11:44.000001,1678122_CAL
1098,Residential and Student Services Building,2415 Bowditch St.,5,,South,0,,,,,,,1,1,,4,2415 Bowditch St.,Berkeley,CA,Alameda,USA,94704,N,600,-122.255898689939,37.8668619593635,2142859.12349554,6054835.43938565,40944.4423828125,1088.0686032888968,{7D20A677-34AD-45BB-A244-40CE05E506E0},2020-11-03 22:11:44.000001,1678122_CAL,2020-11-03 22:11:44.000001,1678122_CAL
1148,RH Unit 2-Wada Hall,2650 Haste St.,9,,South,0,,,,,,,1,1,,4,2650 Haste St.,Berkeley,CA,Alameda,USA,94704,N,900,-122.254904670331,37.8657884057409,2142462.90001504,6055114.99662625,10057.77734375,598.536678066962,{0A095797-FDE5-4CC1-BFB1-1C40C0DDDADD},2020-11-03 22:11:44.000001,1678122_CAL,2020-11-03 22:11:44.000001,1678122_CAL
1770,RH Unit 2-Griffiths Hall,2650 Haste St.,10,,South,0,,,,,,,1,1,,4,2650 Haste St.,Berkeley,CA,Alameda,USA,94704,N,900,-122.254307513384,37.8658343860202,2142476.40808303,6055287.66034861,5677.0126953125,361.8846807394576,{674D26CA-E51B-42C4-91A4-4A631F09F358},2020-11-03 22:11:44.000001,1678122_CAL,2020-11-03 22:11:44.000001,1678122_CAL
1771,RH Unit 2-Ehrman Hall,2650 Haste St.,10,,South,0,,,,,,,1,1,,4,2650 Haste St.,Berkeley,CA,Alameda,USA,94704,N,900,-122.255355095418,37.8658506609556,2142488.00314194,6054985.4213317,5593.998046875,361.11242067339373,{2B6F1DD2-4AAA-47B5-8B19-267396871BC6},2020-11-03 22:11:44.000001,1678122_CAL,2020-11-03 22:11:44.000001,1678122_CAL
1220,Birge Hall,Birge Hall,9,2,Central,0,,,,,,,1,1,,1,100 South Hall,Berkeley,CA,Alameda,USA,94720,S,200,-122.257262844408,37.8721945656044,2144807.92228133,6054478.18479965,13556.5234375,469.36848644354546,{60C12535-9108-455F-AE9F-A893407AC507},2020-11-03 22:11:44.000001,1678122_CAL,2020-11-03 22:11:44.000001,1678122_CAL
1799,Melvin Calvin Laboratory,Calvin Lab,4,2,Central,0,,,,,,,1,1,,4,Optometry Lane,Berkeley,CA,Alameda,USA,94720,S,200,-122.253948395421,37.8710143249611,2144360.29311669,6055426.65579011,16366.5029296875,453.82347970509693,{A5F01983-B686-4356-858F-8473A3DEAFBC},2020-11-03 22:11:44.000001,1678122_CAL,2020-11-03 22:11:44.000001,1678122_CAL
1488,Stephens Hall,Stephens Hall,6,4,Central,0,,,,,,,1,1,,1,South Drive,Berkeley,CA,Alameda,USA,94720,S,300,-122.25756312939,37.8713359114345,2144496.94480891,6054385.65330502,13304.4326171875,839.2070669416242,{EB21A969-7C81-45A7-98F3-EF82E28C99E6},2020-11-03 22:11:44.000001,1678122_CAL,2020-11-03 22:11:44.000001,1678122_CAL
1324,Moses Hall,Moses Hall,6,4,Central,0,,,,,,,1,1,,2,South Drive,Berkeley,CA,Alameda,USA,94720,S,200,-122.258117497063,37.8709599185247,2144363.06504459,6054223.09336878,11644.9951171875,636.4977606799808,{13E0F1C5-D3B2-425A-8FF1-66FAF70E89B1},2020-11-03 22:11:44.000001,1678122_CAL,2020-11-03 22:11:44.000001,1678122_CAL
1484,South Hall,South Hall,4,3,Central,0,,,,,,,1,1,,2,South Hall Lane,Berkeley,CA,Alameda,USA,94720,S,300,-122.258537016913,37.8713438450184,2144505.11367701,6054104.64797323,9039.96484375,462.1091407205646,{620753D2-5E59-4A77-B582-47EA6A9E3883},2020-11-03 22:11:44.000001,1678122_CAL,2020-11-03 22:11:44.000001,1678122_CAL
1372,Hearst Gymnasium,Hearst Gymnasium,3,4,Central,0,,,,,,,1,1,,4,Optometry Lane,Berkeley,CA,Alameda,USA,94720,N,500,-122.256906446624,37.8695870241238,2143856.67964561,6054563.21456161,60702.818359375,1439.7496641839818,{3968D8C8-57C1-4017-A755-2BCB51BDB5E2},2020-11-03 22:11:44.000001,1678122_CAL,2020-11-03 22:11:44.000001,1678122_CAL
1423,Hertz Hall,Hertz Hall,4,4,Central,0,,,,,,,1,1,,4,101 Cross-Sproul Path,Berkeley,CA,Alameda,USA,94720,N,600,-122.255736483872,37.8711033995378,2144402.39942981,6054911.22718204,21750.443359375,633.2587627410641,{7A9F49EF-DDD7-4EDC-8908-FD440C3278DD},2020-11-03 22:11:44.000001,1678122_CAL,2020-11-03 22:11:44.000001,1678122_CAL
1424,Jean Grey Hargrove Music Library,Hargrove Music Library,3,4,Central,0,,,,,,,1,1,,4,Optometry Lane,Berkeley,CA,Alameda,USA,94720,N,400,-122.256140685594,37.8704621956974,2144171.14934428,6054790.19487802,9817.5849609375,398.5203926854148,{AEBBA273-8473-4F28-9EB3-061610268716},2020-11-03 22:11:44.000001,1678122_CAL,2020-11-03 22:11:44.000001,1678122_CAL
1448,Anthony Hall,Anthony Hall,1,4,Central,0,,,,,,,1,1,,2,Eshleman Road,Berkeley,CA,Alameda,USA,94720,S,300,-122.258220981947,37.8706891434737,2144265.04681191,6054191.37568362,3281.7548828125,288.4270794527809,{7A1B20B0-E3A8-4043-9802-44D1C3EFADF6},2020-11-03 22:11:44.000001,1678122_CAL,2020-11-03 22:11:44.000001,1678122_CAL
1208,Old Art Gallery,Old Art Gallery,1,4,Central,0,,,,,,,1,1,,2,Eshleman Road,Berkeley,CA,Alameda,USA,94720,S,700,-122.25864891103,37.8705379887692,2144212.33766863,6054066.84192004,3962.16796875,258.04740999490576,{20EFC928-774E-40C1-B354-E041FAFA8954},2020-11-03 22:11:44.000001,1678122_CAL,2020-11-03 22:11:44.000001,1678122_CAL
1097,Hearst Field Annex B,Hearst Annex B,2,4,Central,0,,,,,,,1,1,,4, 2545-2581 Bancroft Way,Berkeley,CA,Alameda,USA,94720,S,300,-122.257741374652,37.8694304497807,2143804.20181888,6054321.18166544,8821.2197265625,420.4522065475643,{BB1840E9-6122-4F15-A8AF-4A5A12AEAB7F},2020-11-03 22:11:44.000001,1678122_CAL,2020-11-03 22:11:44.000001,1678122_CAL
1097,Hearst Field Annex C,Hearst Annex B,2,4,Central,0,,,,,,,1,1,,4, 2545-2581 Bancroft Way,Berkeley,CA,Alameda,USA,94720,S,300,-122.257741374652,37.8694304497807,2143804.20181888,6054321.18166544,5824.537109375,317.4147787877207,{3327D14F-A2DF-4661-AC1A-95958AAAA009},2020-11-03 22:11:44.000001,1678122_CAL,2020-11-03 22:11:44.000001,1678122_CAL
1097,Hearst Field Annex D,Hearst Annex B,2,4,Central,0,,,,,,,1,1,,4, 2545-2581 Bancroft Way,Berkeley,CA,Alameda,USA,94720,S,300,-122.257741374652,37.8694304497807,2143804.20181888,6054321.18166544,14461.5322265625,616.8323650950755,{9438CCAA-A4AB-481A-B426-1C35251F8D28},2020-11-03 22:11:44.000001,1678122_CAL,2020-11-03 22:11:44.000001,1678122_CAL
1520,Woo Hon Fai Hall,Woo Hon Fai Hall,6,1,South,0,,,,,,,1,1,,4,2625 Durant Ave,Berkeley,CA,Alameda,USA,94704,S,000,-122.255841454236,37.8687638637928,2143551.2277335,6054864.95089219,32048.3896484375,805.9834196101141,{2C109706-E970-4D91-BC7A-73C0928347CB},2020-11-03 22:11:44.000001,1678122_CAL,2020-11-03 22:11:44.000001,1678122_CAL
1077,2547 Channing Way,2547 Channing Way,4,2,South,0,,,,,,,1,1,,4,2547 Channing Way,Berkeley,CA,Alameda,USA,94704,,,-122.256793811189,37.8674166716297,2143065.92300618,6054580.88709285,2852.8603515625,235.33514997070475,{7CDA5E8A-C19C-4023-B65D-816470FFBEAF},2020-11-03 22:11:44.000001,1678122_CAL,2020-11-03 22:11:44.000001,1678122_CAL
1146,RH Unit 1-Slottman Hall,2650 Durant Ave.,7,,South,0,,,,,,,1,1,,4,2650 Durant Ave.,Berkeley,CA,Alameda,USA,94704,N,900,-122.255261778798,37.8675626935505,2143110.7866636,6055024.04566885,9865.0849609375,635.6455989427557,{EB49431C-D7B4-48B1-BCFE-337CFF03BA22},2020-11-03 22:11:44.000001,1678122_CAL,2020-11-03 22:11:44.000001,1678122_CAL
1766,RH Unit 1-Putnam Hall,2650 Durant Ave.,10,,South,0,,,,,,,1,1,,4,2650 Durant Ave.,Berkeley,CA,Alameda,USA,94704,N,900,-122.254673734821,37.8676098834989,2143124.78386932,6055194.08348149,5677.634765625,363.01359323316984,{39B5750B-57E1-4DF9-A609-050830996854},2020-11-03 22:11:44.000001,1678122_CAL,2020-11-03 22:11:44.000001,1678122_CAL
1763,RH Unit 1-Freeborn Hall,2650 Durant Ave.,10,,South,0,,,,,,,1,1,,4,2650 Durant Ave.,Berkeley,CA,Alameda,USA,94704,N,900,-122.254592278049,37.8680532742631,2143285.76538744,6055220.61960175,5614.54296875,361.4857932674237,{9B70414A-86EF-4BA9-9D35-57D1BD79E9A2},2020-11-03 22:11:44.000001,1678122_CAL,2020-11-03 22:11:44.000001,1678122_CAL
1145,RH Unit 1-Christian Hall,2650 Durant Ave.,7,,South,0,,,,,,,1,1,,4,2650 Durant Ave.,Berkeley,CA,Alameda,USA,94704,N,900,-122.255039789409,37.8681175834813,2143311.60019416,6055091.90303173,9556.234375,613.6871171362613,{F169A87B-4DE4-459D-904F-0605DABB92D1},2020-11-03 22:11:44.000001,1678122_CAL,2020-11-03 22:11:44.000001,1678122_CAL
1764,RH Unit 1-Cheney Hall,2650 Durant Ave.,10,,South,0,,,,,,,1,1,,4,2650 Durant Ave.,Berkeley,CA,Alameda,USA,94704,N,900,-122.255638745454,37.8680701089108,2143297.55918735,6054918.71506473,5674.5380859375,362.83351764602486,{E96ED185-7735-4310-9C6D-051ACFE38347},2020-11-03 22:11:44.000001,1678122_CAL,2020-11-03 22:11:44.000001,1678122_CAL
1033,Chou Hall,Chou Hall,,4,Central,0,,,,,,,1,1,,4,Cheit Lane,Berkeley,CA,Alameda,USA,94720,,,-122.254360833952,37.8723815098196,2144860.26725418,6055316.95910441,13520.3603515625,543.8918485075801,{655C4BBF-0C59-4D7F-82CD-466AC85DAD73},2020-11-03 22:11:44.000001,1678122_CAL,2020-11-03 22:11:44.000001,1678122_CAL
1231,The Law Building,Law Building,11,4,Central,0,,,,,,,1,1,,4,225 Bancroft Way,Berkeley,CA,Alameda,USA,94720,S,200,-122.253392409593,37.8699206594311,2143959.12185877,6055579.65081776,77114.1123046875,2112.4992081033115,{8186FF02-1255-46A8-A5B0-B4188532ED72},2020-11-03 22:11:44.000001,1678122_CAL,2020-11-03 22:11:44.000001,1678122_CAL
1234,Student Services Building,Student Services Bldg,5,4,Central,0,,,,,,,1,1,,4,Optometry Lane,Berkeley,CA,Alameda,USA,94720,S,300,-122.253567156114,37.8714517263583,2144517.47328402,6055539.66458723,21510.7060546875,835.5745537071201,{B3D45194-3DFF-411B-B7BD-90ABD2DE7E81},2020-11-03 22:11:44.000001,1678122_CAL,2020-11-03 22:11:44.000001,1678122_CAL
1142,Jackson Graduate House,2333 College Ave.,4,,South,0,,,,,,,1,1,,,2333 College Ave.,Berkeley,CA,Alameda,USA,94704,N,900,-122.254043340685,37.8680605055488,2143285.42789753,6055379.09702863,15633.9287109375,899.5279986701415,{C7010417-B8EB-4FEF-920E-181CD63EFB85},2020-11-03 22:11:44.000001,1678122_CAL,2020-11-03 22:11:44.000001,1678122_CAL
1480,Sather Tower (The Campanile),Sather Tower (The Campanile),9,4,Central,0,,,,,,,1,1,,1,Carillon Road,Berkeley,CA,Alameda,USA,94720,N,600,-122.257826949278,37.8720634923699,2144763.2609142,6054314.49205351,1164.5517578125,136.50214017334216,{BB683E09-EA70-4C68-9698-2D8D1C863C52},2020-11-03 22:11:44.000001,1678122_CAL,2020-11-03 22:11:44.000001,1678122_CAL
1253,Hudson Rugby Field House,Hudson Rugby Field House,1,,East,0,,,,,,,1,1,,4,Stadium Rim Way,Berkeley,CA,Alameda,USA,94720,S,300,-122.24920843517,37.870590889402,2144180.52949657,6056791.71363359,1772.86328125,183.98093306477435,{8D0D1C01-6599-4E47-BE81-7912357EEDB6},2020-11-03 22:11:44.000001,1678122_CAL,2020-11-03 22:11:44.000001,1678122_CAL
1390,International House,I-House,8,,Perimeter,0,,,,,,,1,1,,4,2299 Piedmont Ave,Berkeley,CA,Alameda,USA,94720,N,900,-122.2515938017,37.8696607711229,2143854.78427125,6056096.96074093,41388.8115234375,1612.0035668978164,{A668BF0D-F5BD-41AF-8A40-0F1B255AA591},2020-11-03 22:11:44.000001,1678122_CAL,2020-11-03 22:11:44.000001,1678122_CAL
1340,Men's Faculty Club,Men's Faculty Club,4,2,Central,0,,,,,,,1,1,,4,Minor Lane,Berkeley,CA,Alameda,USA,94720,N,900,-122.255837172052,37.8717914665932,2144653.44501164,6054886.86933801,21771.0869140625,907.907388677734,{55E4571D-C8D1-4A22-A627-1C9287C43DF4},2020-11-03 22:11:44.000001,1678122_CAL,2020-11-03 22:11:44.000001,1678122_CAL
1486,Kroeber Hall,Kroeber Hall,6,4,Central,0,,,,,,,1,1,,4,Bancroft Way,Berkeley,CA,Alameda,USA,94720,S,200,-122.255330097455,37.869878968817,2143954.42813837,6055020.14697679,34357.611328125,1104.944983835615,{3F3E1637-D250-4094-BC41-CD36E39D78CF},2020-11-03 22:11:44.000001,1678122_CAL,2020-11-03 22:11:44.000001,1678122_CAL
1612,Switchgear Station 2 ,Switchgear Station 2 ,,4,Central,0,,,,,,,1,1,,1,Switchgear Station 2 ,Berkeley,CA,Alameda,USA,94720,,,-122.258754996809,37.8706827060839,2144265.59941212,6054037.21594211,1744.36328125,173.69452106724165,{1F757C14-3706-4203-9E41-E8DEF009D9B6},2020-11-03 22:11:44.000001,1678122_CAL,2020-11-03 22:11:44.000001,1678122_CAL
1973,2505 Channing Way,2505 Channing Way,3,,South,0,,,,,,,1,1,,,2505 Channing Way,Berkeley,CA,Alameda,USA,94704,,,-122.2581125559,37.8672284599531,2143004.5502951,6054198.99556732,3459.1484375,244.74395333399843,{7A7EDEF2-477A-4838-9E30-16EEC889A86A},2020-11-03 22:11:44.000001,1678122_CAL,2020-11-03 22:11:44.000001,1678122_CAL
1240,2515 Channing Way,2515 Channing Way,2,2,South,0,,,,,,,1,1,,,2515 Channing Way,Berkeley,CA,Alameda,USA,94704,S,300,-122.257866591316,37.8672972858278,2143028.27359786,6054270.45452556,7099.248046875,367.072334553642,{B9515474-46F0-4262-A3AF-9AC8D46E443C},2020-11-03 22:11:44.000001,1678122_CAL,2020-11-03 22:11:44.000001,1678122_CAL
1092,Channing/Bowditch Apartments,2521 Channing Way,4,2,South,0,,,,,,,1,1,,4,2521 Channing Way,Berkeley,CA,Alameda,USA,94704,N,900,-122.257329608785,37.867388425449,2143058.54330604,6054426.05685252,23267.51171875,1069.422275175887,{5917E0A8-6C63-44AA-9D4D-23220A9EC3CE},2020-11-03 22:11:44.000001,1678122_CAL,2020-11-03 22:11:44.000001,1678122_CAL
1065,Fox Cottage,2350 Bowditch St.,1,2,South,0,,,,,,,1,1,,,2350 Bowditch St.,Berkeley,CA,Alameda,USA,94704,S,300,-122.256837738139,37.8675982805986,2143132.27823412,6054569.45062121,1123.1455078125,153.112658523149,{9818AD1D-8CF8-47ED-931A-7AF8F9D53B62},2020-11-03 22:11:44.000001,1678122_CAL,2020-11-03 22:11:44.000001,1678122_CAL
1063,2334 Bowditch St.,2334 Bowditch St.,2,2,South,0,,,,,,,1,1,,,2334 Bowditch St.,Berkeley,CA,Alameda,USA,94704,,,-122.256854525102,37.8677065636989,2143171.79111947,6054565.34588017,1737.0859375,167.78796273841934,{B2B06D98-6306-4F43-9831-E690A20DEE5D},2020-11-03 22:11:44.000001,1678122_CAL,2020-11-03 22:11:44.000001,1678122_CAL
1765,RH Unit 1-Deutsh Hall,2650 Durant Ave.,10,,South,0,,,,,,,1,1,,4,2650 Durant Ave.,Berkeley,CA,Alameda,USA,94704,N,900,-122.255719344717,37.8676270837563,2143136.70617397,6054892.42724652,5588.88671875,362.00880631319507,{C1D4B7A4-0FFF-41FC-9E0C-E86F8E3A6845},2020-11-03 22:11:44.000001,1678122_CAL,2020-11-03 22:11:44.000001,1678122_CAL
1257,2222 Piedmont Ave.,2222 Piedmont Ave.,4,4,Central,0,,,,,,,1,1,,4,2222 Piedmont Ave.,Berkeley,CA,Alameda,USA,94720,S,300,-122.253118971522,37.8711817112646,2144416.74682519,6055667.1668643,1898.7763671875,207.74955491050417,{EAB6565B-5DED-4DE4-96B8-231C7C5B8643},2020-11-03 22:11:44.000001,1678122_CAL,2020-11-03 22:11:44.000001,1678122_CAL
1062,Center for Digital Archaeology,2224 Piedmont Ave.,3,4,Central,0,,,,,,,1,1,,4,2224 Piedmont Ave.,Berkeley,CA,Alameda,USA,94720,S,200,-122.253054978302,37.8709928732782,2144347.65169424,6055684.34712154,2498.6708984375,261.8706050717202,{2D20389E-360E-482A-983C-5D50EE258847},2020-11-03 22:11:44.000001,1678122_CAL,2020-11-03 22:11:44.000001,1678122_CAL
1020,Study of Demography,2232 Piedmont Ave.,3,4,Central,0,,,,,,,1,1,,4,2232 Piedmont Ave.,Berkeley,CA,Alameda,USA,94720,S,300,-122.253046923076,37.8707799154711,2144270.07787608,6055685.21935609,2544.44921875,230.97540171725473,{8E932DF1-9ED1-4A5E-A07E-2297DDD5C15D},2020-11-03 22:11:44.000001,1678122_CAL,2020-11-03 22:11:44.000001,1678122_CAL
1246,2234 Piedmont Ave.,2234 Piedmont Ave.,3,4,Central,0,,,,,,,1,1,,4,2234 Piedmont Ave.,Berkeley,CA,Alameda,USA,94720,S,300,-122.253000203781,37.8705991732976,2144204.02357113,6055697.46973922,2323.4736328125,257.14296255351195,{C32EFE5A-A958-4E57-A336-3B47A17A87A7},2020-11-03 22:11:44.000001,1678122_CAL,2020-11-03 22:11:44.000001,1678122_CAL
1224,Center for the Study of Law and Society,2240 Piedmont Ave.,4,4,Central,0,,,,,,,1,1,,4,2240 Piedmont Ave.,Berkeley,CA,Alameda,USA,94720,S,300,-122.252824360705,37.8703172524821,2144100.43567944,6055746.29525878,3193.1103515625,294.7371375547355,{A0F29D6A-D9A8-41E9-BBD5-B6C1466944BB},2020-11-03 22:11:44.000001,1678122_CAL,2020-11-03 22:11:44.000001,1678122_CAL
1302F,Minor Hall,Minor Hall,5,2,Central,0,,,,,,,1,1,,4,Cheit Lane,Berkeley,CA,Alameda,USA,94720,S,200,-122.254738950701,37.8714798327634,2144534.04504529,6055201.68190208,11927.115234375,526.4681275387308,{B7047042-FA5C-47F9-B0D3-A86CB06A0D87},2020-11-03 22:11:44.000001,1678122_CAL,2020-11-03 22:11:44.000001,1678122_CAL
1797,Wurster Hall,Wurster Hall,11,2,Central,0,,,,,,,1,1,,4,Wurster Hall,Berkeley,CA,Alameda,USA,94720,S,100,-122.254774579645,37.8706167704288,2144220.02801128,6055185.50733284,51915.435546875,1455.3085678393236,{32D50870-F9F0-4D23-9957-01C1BFD1E1FF},2020-11-03 22:11:44.000001,1678122_CAL,2020-11-03 22:11:44.000001,1678122_CAL
1483,Senior Hall,Senior Hall,1,2,Central,0,,,,,,,1,1,,4,Minor Lane,Berkeley,CA,Alameda,USA,94720,S,000,-122.255381908224,37.8718841445008,2144684.72072396,6055018.88862179,3522.05859375,268.9799865463472,{97B0152C-FB78-4431-AD93-C910E2C61B99},2020-11-03 22:11:44.000001,1678122_CAL,2020-11-03 22:11:44.000001,1678122_CAL
1553,Women's Faculty Club,Women's Faculty Club,4,2,Central,0,,,,,,,1,1,,4,Women's Faculty Club,Berkeley,CA,Alameda,USA,94720,N,600,-122.254927835526,37.8720496937648,2144742.53328606,6055151.06148622,4597.7314453125,339.36922574606626,{F9067F1F-7B50-4749-9280-DD08312B2496},2020-11-03 22:11:44.000001,1678122_CAL,2020-11-03 22:11:44.000001,1678122_CAL
1258,Archaeology Research Facility,2251 College Avenue,4,4,Central,0,,,,,,,1,1,,4,2251 College Avenue,Berkeley,CA,Alameda,USA,94720,S,200,-122.253857107814,37.870200807661,2144063.62702201,6055447.44999903,6454.2392578125,328.6025325641663,{7D88F9F6-CFBD-4DE5-9D44-DF5F056212A6},2020-11-03 22:11:44.000001,1678122_CAL,2020-11-03 22:11:44.000001,1678122_CAL
1325,Cory Hall,Cory Hall,9,,Central,0,,,,,,,1,,,5,2626 Hearst Ave.,Berkeley,CA,Alameda,USA,94720,,,-122.257584601865,37.8750703830624,2145856.64764288,6054404.99324895,38397.27734375,1092.236718192257,{8DF91B14-75A6-4C94-9EFF-E46D5ECD3B67},2020-11-03 22:11:44.000001,1678122_CAL,2020-11-03 22:11:44.000001,1678122_CAL
1082,La Loma Housing Unit 2,1811 La Loma Ave,2,,Perimeter,0,,,,,,,1,1,,4,1811 La Loma Ave,Berkeley,CA,Alameda,USA,94709,,,-122.256551760526,37.8763437894291,2146314.65240171,6054711.75443334,7996.9501953125,503.1099900911206,{8A602CA8-3E61-4042-9250-7C485363D4E2},2020-11-03 22:11:44.000001,1678122_CAL,2020-11-03 22:11:44.000001,1678122_CAL
1085,Foothill Hillside Unit 5,2700 Hearst Ave.,2,,Perimeter,0,,,,,,,1,1,,4,2700 Hearst Ave.,Berkeley,CA,Alameda,USA,94720,,,-122.255216286399,37.8751994772948,2145890.81762818,6055089.32619148,2598.82421875,210.65591143813685,{D1DDD9D4-8057-4CCF-8F91-555F9D3084ED},2020-11-03 22:11:44.000001,1678122_CAL,2020-11-03 22:11:44.000001,1678122_CAL
1084,Foothill Hillside Unit 4,2700 Hearst Ave.,4,,Perimeter,0,,,,,,,1,1,,4,2700 Hearst Ave.,Berkeley,CA,Alameda,USA,94720,,,-122.256051555743,37.8753484462237,2145949.57426339,6054849.30123798,16591.419921875,774.7809888670084,{9106A932-F3AD-49D3-8F7B-F43709A1579E},2020-11-03 22:11:44.000001,1678122_CAL,2020-11-03 22:11:44.000001,1678122_CAL
1495,Stern Hall,Stern Hall,5,,Perimeter,0,,,,,,,1,1,,4,2700 Hearst Ave.,Berkeley,CA,Alameda,USA,94720,N,900,-122.255191577782,37.8748634497544,2145768.34832497,6055094.16252041,28563.4208984375,1842.7661621910258,{2BB351AD-811A-4CAE-89EF-854CD81DE748},2020-11-03 22:11:44.000001,1678122_CAL,2020-11-03 22:11:44.000001,1678122_CAL
1086,Foothill Hillside Unit 6,2700 Hearst Ave.,2,,Perimeter,0,,,,,,,1,1,,4,2700 Hearst Ave.,Berkeley,CA,Alameda,USA,94720,,,-122.255200961937,37.8754208810215,2145971.33987775,6055095.26056318,10338.125,602.6029862385008,{1ABD9EFC-1843-4018-8288-78A36699B37E},2020-11-03 22:11:44.000001,1678122_CAL,2020-11-03 22:11:44.000001,1678122_CAL
1152,Sutardja Dai Hall,Sutardja Dai Hall,11,1,Central,0,,,,,,,1,1,,6,2594 Hearst Ave,Berkeley,CA,Alameda,USA,94720,S,200,-122.258398436693,37.8748479221291,2145780.06977884,6054168.61389647,29284.0478515625,832.0569927396158,{B40C76A7-CCB0-4EBC-8AB9-0A07BACD44AE},2020-11-03 22:11:44.000001,1678122_CAL,2020-11-03 22:11:44.000001,1678122_CAL
1787,Upper Hearst Parking Structure,Upper Hearst Parking,4,1,Perimeter,0,,,,,,,1,1,,5,2701 Hearst Ave.,Berkeley,CA,Alameda,USA,94709,,,-122.2573557726,37.8757583430093,2146105.8687675,6054475.73280893,24030.103515625,617.904972281236,{DCFC2D8C-98ED-423C-B586-0D4B262B5C67},2020-11-03 22:11:44.000001,1678122_CAL,2020-11-03 22:11:44.000001,1678122_CAL
1292,Lewis Hall,Lewis Hall,6,2,Central,0,,,,,,,1,1,,4,Lewis Hall,Berkeley,CA,Alameda,USA,94720,S,200,-122.255168526583,37.8730056482787,2145091.86466113,6055088.12783604,17859.859375,616.1054213619745,{D0401301-4584-40B1-8208-76DF096C23C6},2020-11-03 22:11:44.000001,1678122_CAL,2020-11-03 22:11:44.000001,1678122_CAL
1801,Pimentel Hall,Pimentel Hall,2,2,Central,0,,,,,,,1,1,,,University Drive,Berkeley,CA,Alameda,USA,94720,,,-122.256029929862,37.8734213186848,2145247.85927189,6054842.37581852,6970.603515625,300.24176754905915,{9BE557EF-5E4A-4FF1-B7F6-52124D4DA268},2020-11-03 22:11:44.000001,1678122_CAL,2020-11-03 22:11:44.000001,1678122_CAL
1790,Evans Hall,Evans Hall,14,,Central,0,,,,,,,1,,,5,University Drive,Berkeley,CA,Alameda,USA,94720,,,-122.257852865762,37.8736276648969,2145332.8600124,6054317.71042875,18412.7255859375,784.1815204103698,{2EB22BAA-0D9E-48CA-B764-B1DCAAB94471},2020-11-03 22:11:44.000001,1678122_CAL,2020-11-03 22:11:44.000001,1678122_CAL
1356,Gilman Hall,Gilman Hall,5,2,Central,0,,,,,,,1,1,,5,South Drive,Berkeley,CA,Alameda,USA,94720,S,200,-122.256311272655,37.8726338837358,2144962.70630521,6054755.80316154,11376.2294921875,514.8064272118615,{522645C0-DD41-4121-8A01-20845A7AB6FD},2020-11-03 22:11:44.000001,1678122_CAL,2020-11-03 22:11:44.000001,1678122_CAL
1405,Le Conte Hall,Le Conte Hall,5,2,Central,0,,,,,,,1,1,,5,South Hall Road,Berkeley,CA,Alameda,USA,94720,S,200,-122.257150900851,37.8725859556969,2144949.80654055,6054513.16684774,36484.4052734375,1110.1778966621628,{CAC4562B-A89C-42BA-9095-1913982C9EFB},2020-11-03 22:11:44.000001,1678122_CAL,2020-11-03 22:11:44.000001,1678122_CAL
1027,Campbell Hall,Campbell Hall,,2,Central,0,,,,,,,1,1,,5,University Drive,Berkeley,CA,Alameda,USA,94720,,,-122.257091236775,37.8729869308908,2145095.46379218,6054533.12623936,12485.330078125,461.0834977689978,{D95EA86C-2F23-41FB-969E-1BE0E8B229A4},2020-11-03 22:11:44.000001,1678122_CAL,2020-11-03 22:11:44.000001,1678122_CAL
1373,Hearst Memorial Mining Building,Hearst Memorial Mining,6,,Central,0,,,,,,,1,,,5,Hearst Mining Circle,Berkeley,CA,Alameda,USA,94720,,,-122.257276579841,37.8744532469272,2145630.30092648,6054489.66334302,39458.603515625,1135.2987888174791,{37495341-2E58-4753-BFB4-AE94B17B28E6},2020-11-03 22:11:44.000001,1678122_CAL,2020-11-03 22:11:44.000001,1678122_CAL
1212,Berkely Student Co-op - Cloyne Court,2600 Ridge Rd.,4,,Perimeter,0,,,,,,,1,1,,,2600 Ridge Road,Berkeley,CA,Alameda,USA,94709,N,900,-122.257944613633,37.8760928034274,2146230.8256611,6054308.09350831,13669.251953125,817.5265244226497,{1874F72F-F3A9-4667-900E-D3DD9486B61C},2020-11-03 22:11:44.000001,1678122_CAL,2020-11-03 22:11:44.000001,1678122_CAL
1144,Goldman School of Public Policy,1893 Le Roy Ave.,3,1,Perimeter,0,,,,,,,1,1,,,1893 Le Roy Ave.,Berkeley,CA,Alameda,USA,94709,S,300,-122.258193847427,37.8756881622413,2146084.86150711,6054233.40243705,5115.779296875,347.833573692709,{CBFEF621-4EDC-4E9A-A0A8-8233E7656C21},2020-11-03 22:11:44.000001,1678122_CAL,2020-11-03 22:11:44.000001,1678122_CAL
1237,Soda Hall,Soda Hall,8,1,Perimeter,0,,,,,,,1,1,,5,Hearst Ave,Berkeley,CA,Alameda,USA,94709,S,200,-122.258722587136,37.875645679033,2146072.26227575,6054080.52873716,19969.1005859375,585.0157971283292,{0FB39176-C60F-47CB-8856-1B4C2DB528E9},2020-11-03 22:11:44.000001,1678122_CAL,2020-11-03 22:11:44.000001,1678122_CAL
1057,Goldman School of Public Policy,Goldman School of Public Policy,3,1,Perimeter,0,,,,,,,1,1,,,2607 Hearst Ave.,Berkeley,CA,Alameda,USA,94709,S,300,-122.257869782301,37.8757410719976,2146102.36706668,6054327.28259164,6107.9697265625,406.82462188478297,{F9399022-4D78-4558-B019-86F9BC1975EB},2020-11-03 22:11:44.000001,1678122_CAL,2020-11-03 22:11:44.000001,1678122_CAL
1809,Hildebrand Hall,Hildebrand Hall,7,2,Central,0,,,,,,,1,1,,1,South Drive,Berkeley,CA,Alameda,USA,94720,S,200,-122.255718957917,37.872593272955,2144944.71366621,6054926.46227085,17913.208984375,545.0150016889547,{E0B69BFB-956E-4E0C-A86E-6AC5DD23B6B5},2020-11-03 22:11:44.000001,1678122_CAL,2020-11-03 22:11:44.000001,1678122_CAL
1149,Stanley Hall,Stanley Hall,12,3,Central,0,,,,,,,1,1,,6,Mining Circle,Berkeley,CA,Alameda,USA,94720,S,200,-122.256121676916,37.8739991636063,2145458.72866585,6054819.84686703,46825.361328125,1017.9633634639232,{AB57D417-0748-4271-933B-309E5982F336},2020-11-03 22:11:44.000001,1678122_CAL,2020-11-03 22:11:44.000001,1678122_CAL
1782,Latimer Hall,Latimer Hall,11,2,Central,0,,,,,,,1,1,,1,University Drive,Berkeley,CA,Alameda,USA,94720,S,200,-122.255922027004,37.8731350660931,2145143.06079424,6054871.55961411,20008.28125,591.3280272731198,{AB18C623-EA51-4A2E-AEEA-E01FC26F6812},2020-11-03 22:11:44.000001,1678122_CAL,2020-11-03 22:11:44.000001,1678122_CAL
1419,Donner Lab,Donner Lab,5,3,Central,0,,,,,,,1,1,,5,Donner Drive,Berkeley,CA,Alameda,USA,94720,S,200,-122.256447335396,37.8745489358748,2145660.64489036,6054729.62360197,16884.6357421875,861.5660185152733,{69106916-3B8E-4B8F-B53F-2E5FB4F96155},2020-11-03 22:11:44.000001,1678122_CAL,2020-11-03 22:11:44.000001,1678122_CAL
1089,Foothill Hillside Unit 9,2700 Hearst Ave.,3,,Perimeter,0,,,,,,,1,1,,4,2700 Hearst Ave.,Berkeley,CA,Alameda,USA,94720,,,-122.254342192997,37.8743380186322,2145572.46101892,6055335.6928869,3487.755859375,259.0688042288481,{C20A427E-6412-4F7D-BBEB-3E2EBEA824C5},2020-11-03 22:11:44.000001,1678122_CAL,2020-11-03 22:11:44.000001,1678122_CAL
1230,Bowles Hall,Bowles Hall,8,,Perimeter,0,,,,,,,1,1,,4,1928 Stadium Rim Way,Berkeley,CA,Alameda,USA,94720,N,900,-122.25304770115,37.8733592330423,2145209.11905102,6055702.58704233,16614.484375,1050.3529232305207,{39AFE069-2BBD-4BAF-9BCB-C5EF6E97D505},2020-11-03 22:11:44.000001,1678122_CAL,2020-11-03 22:11:44.000001,1678122_CAL
1252,Witter RR,Witter RR,2,,East,0,,,,,,,1,1,,4,210 Stadium Rim Way,Berkeley,CA,Alameda,USA,94720,S,700,-122.247911397689,37.8714975412109,2144503.61442934,6057172.20315399,724.3798828125,108.00804060255045,{814DF85F-77F7-488B-B429-CB74B862C41F},2020-11-03 22:11:44.000001,1678122_CAL,2020-11-03 22:11:44.000001,1678122_CAL
1217,Founders Building,Founders Building,1,,South,0,,,,,,,1,1,,,2220 Bancroft Way,Berkeley,CA,Alameda,USA,94704,N,400,-122.264564390094,37.8678824185075,2143277.68197561,6052341.41209499,1161.3046875,136.31984885603367,{D6D1F20F-2988-4770-97F2-D3D4525CBC42},2020-11-03 22:11:44.000001,1678122_CAL,2020-11-03 22:11:44.000001,1678122_CAL
1609,Hellman Bleachers,Hellman Bleachers,1,,Central,0,,Assembly (Group A),,,,,1,1,,2,209 Frank Schlessinger Wa,Berkeley,CA,Alameda,USA,94720,N,500,-122.26475186886,37.8700652905827,2144073.40508106,6052302.29266675,6523.4404296875,1080.7891119172482,{19BC82D1-C0E8-4701-848B-1AD7291AF233},2020-11-03 22:11:44.000001,1678122_CAL,2020-11-03 22:11:44.000001,1678122_CAL
1722,Insectary Greenhouse,Insectary Greenhouse,1,5,Perimeter,0,,,,,,,1,1,,"3, 7",Walnut Street,Berkeley,CA,Alameda,USA,94709,N,500,-122.267268664031,37.8748127637374,2145815.49340465,6051608.58698011,4362.25390625,280.34066251464805,{A1806D5D-A89F-4EF3-BDF1-72BBC5A343D1},2020-11-03 22:11:44.000001,1678122_CAL,2020-11-03 22:11:44.000001,1678122_CAL
1037,Berkeley Way West,Berkeley Way West,,5,Perimeter,0,,,,,,,1,1,,"3, 7",2121 Berkeley Way,Berkeley,CA,Alameda,USA,94704,,,-122.267949053425,37.8735470056453,2145358.38659812,6051403.53268188,57534.390625,974.2524438835305,{E26121A9-9425-432E-9BAC-018C2C840C33},2020-11-03 22:11:44.000001,1678122_CAL,2020-11-03 22:11:44.000001,1678122_CAL
1441,University House Garage,University House Garage,1,3,Central,0,,,,,,,1,1,,5,Oxford St.,Berkeley,CA,Alameda,USA,94720,,,-122.262285816161,37.8746450888677,2145727.3296455,6053045.3961563,514.9638671875,94.30466341948865,{BE5A5CB7-89F7-4817-982E-3267C6FF059E},2020-11-03 22:11:44.000001,1678122_CAL,2020-11-03 22:11:44.000001,1678122_CAL
1366,Oxford Research Unit and Greenhouses,1777 Oxford St.,,5,Perimeter,0,,,,,,,1,1,,"3, 7",1777 Oxford St.,Berkeley,CA,Alameda,USA,94709,,,,,,,36302.8173828125,814.1985100155756,{3D805913-17FA-4C81-9D9E-9624EE19AB0F},2020-11-03 22:11:44.000001,1678122_CAL,2020-11-03 22:11:44.000001,1678122_CAL
1236,Bakar Faculty Bldg,Bakar Faculty Bldg,6,4,Central,0,,,,,,,1,1,,4,2220 Piedmont Avenue,Berkeley,CA,Alameda,USA,94720,S,300,-122.253650041344,37.8719290636459,2144691.70279261,6055519.00121959,28150.6796875,1024.0621992436193,{66509871-F55E-47D6-B2F6-E14A64AA3657},2020-11-03 22:11:44.000001,1678122_CAL,2020-11-03 22:11:44.000001,1678122_CAL
1808,Tan Hall,Tan Hall,10,2,Central,0,,,,,,,1,1,,1,Oppenheimer Way,Berkeley,CA,Alameda,USA,94720,S,200,-122.256449729352,37.8731119865452,2145137.51633824,6054719.11302243,12756.6171875,489.92193031920806,{9225CF6F-A04D-472C-BD67-200892A59974},2020-11-03 22:11:44.000001,1678122_CAL,2020-11-03 22:11:44.000001,1678122_CAL
1410,Giauque Lab,Giauque Lab,4,2,Central,0,,,,,,,1,1,,1,South Drive,Berkeley,CA,Alameda,USA,94720,S,200,-122.256070678735,37.8726379345549,2144962.87799352,6054825.2639798,10963.3388671875,451.16873079602277,{C98B48D5-4124-4469-A518-39E7F33744B3},2020-11-03 22:11:44.000001,1678122_CAL,2020-11-03 22:11:44.000001,1678122_CAL
1375,Hesse Hall,Hesse Hall,4,1,Central,0,,,,,,,1,1,,5,Soule Road,Berkeley,CA,Alameda,USA,94720,S,200,-122.259312344646,37.8741704188191,2145538.37256495,6053900.23931957,23535.8134765625,744.7423102969074,{AF7A1526-6964-4B23-BC10-CE2DDB255216},2020-11-03 22:11:44.000001,1678122_CAL,2020-11-03 22:11:44.000001,1678122_CAL
1377,O'Brien Hall,O'Brien Hall,6,1,Central,0,,,,,,,1,1,,5,University Drive,Berkeley,CA,Alameda,USA,94720,S,200,-122.25907911101,37.8743075261431,2145587.02295027,6053968.48529706,10859.3232421875,578.4291845705966,{A798A2F2-A2A9-49AA-BF44-A945D8A06BC4},2020-11-03 22:11:44.000001,1678122_CAL,2020-11-03 22:11:44.000001,1678122_CAL
1788,Bechtel Engineering Center,Bechtel Center,3,1,Central,0,,,,,,,1,1,,5,230 Bechtel Drive,Berkeley,CA,Alameda,USA,94720,S,200,-122.258235131309,37.8742245944523,2145552.25318911,6054211.47693153,24076.6279296875,748.5556315538615,{04DBE28C-9E54-49CE-91F7-0F8466BC5D48},2020-11-03 22:11:44.000001,1678122_CAL,2020-11-03 22:11:44.000001,1678122_CAL
1438,University House Greenhouse,University House Greenhouse,1,3,Central,0,,,,,,,1,1,,5,Oxford St.,Berkeley,CA,Alameda,USA,94720,,,-122.261016454023,37.8747861141724,2145771.77550063,6053412.67815772,716.123046875,112.19791937036084,{D890CFAE-219E-471E-967F-B373B8C3433C},2020-11-03 22:11:44.000001,1678122_CAL,2020-11-03 22:11:44.000001,1678122_CAL
1229,Northwest Animal Facility (underground),Northwest Animal Facility,,5,Central,1,,,,,,,1,1,,"3, 7",Northwest Animal Facility,Berkeley,CA,Alameda,USA,94720,,,,,,,20262.13671875,659.0539034393171,{E86B0A84-53FC-4497-B302-9E632DD7D75E},2020-11-03 22:11:44.000001,1678122_CAL,2020-11-03 22:11:44.000001,1678122_CAL
1297,David Gardner Stacks (underground),David Gardner Stacks,,3,Central,1,,,,,,,1,1,,"3, 7",Main Stacks,Berkeley,CA,Alameda,USA,94720,,,,,,,30564.4111328125,1082.7612557735804,{DB2618F0-D713-4A29-A6C1-015BD34BCED1},2020-11-03 22:11:44.000001,1678122_CAL,2020-11-03 22:11:44.000001,1678122_CAL
1083,La Loma Housing Unit 3,1811 La Loma Ave,2,,Perimeter,0,,,,,,,1,1,,4,1811 La Loma Ave,Berkeley,CA,Alameda,USA,94709,,,-122.256046888025,37.8763163201125,2146301.91717084,6054857.26100065,6147.251953125,501.2634721996608,{090BA37E-D21B-47C1-8DF1-6A19826101DC},2020-11-03 22:11:44.000001,1678122_CAL,2020-11-03 22:11:44.000001,1678122_CAL
1397,West Gate Kiosk,West Gate Kiosk,1,,Central,0,,,,,,,1,1,,,University Drive,Berkeley,CA,Alameda,USA,94720,S,300,-122.264785275998,37.8718182235415,2144711.76551659,6052304.68626896,113.01171875,45.072410523338924,{C6C55168-FDE7-4A65-8567-D45B67BABDE7},2020-11-03 22:11:44.000001,1678122_CAL,2020-11-03 22:11:44.000001,1678122_CAL
1250,Maxwell Family Field (& Stadium Parking),2205 Piedmont Ave.,1,,Perimeter,0,,,,,,,1,1,,4,2205 Piedmont Ave.,Berkeley,CA,Alameda,USA,94720,,,-122.252833622458,37.8723448334474,2144838.65494075,6055757.45002335,76962.0087890625,1197.3739189228634,{CE7493B4-AF9D-498D-86EC-C1672FBE9DED},2020-11-03 22:11:44.000001,1678122_CAL,2020-11-03 22:11:44.000001,1678122_CAL
1365,Recreational Sports Facility/Kleeberger Fld House,Spieker Aquatic Complex E,3,6,Central,0,,,,,,,1,1,,2,2301 Bancroft Way,Berkeley,CA,Alameda,USA,94720,N,500,-122.261806184928,37.868754091008,2143580.02623782,6053143.42925563,69669.9169921875,1466.6637731963372,{61012D92-86EA-457D-AC34-002EC6B7981E},2020-11-03 22:11:44.000001,1678122_CAL,2020-11-03 22:11:44.000001,1678122_CAL
1318,Edwards Stadium East Bleachers,Batting Shed,1,,Central,0,,,,,,,1,1,,2,2223 Fulton Street,Berkeley,CA,Alameda,USA,94720,S,700,-122.263947814023,37.8699391926926,2144023.12249161,6052533.47669004,39208.166015625,1211.5379222362453,{A59CDA28-D99B-4F73-80E8-12F8F69331F6},2020-11-03 22:11:44.000001,1678122_CAL,2020-11-03 22:11:44.000001,1678122_CAL
1318,Edwards Stadium West Bleachers,Batting Shed,1,6,Central,0,,,,,,,1,1,,2,2223 Fulton Street,Berkeley,CA,Alameda,USA,94720,S,700,-122.263947814023,37.8699391926926,2144023.12249161,6052533.47669004,41502.2177734375,1207.8628517495408,{370EEA08-8103-4FA7-92B5-82D50DDD5838},2020-11-03 22:11:44.000001,1678122_CAL,2020-11-03 22:11:44.000001,1678122_CAL
1422,Morrison Hall,Morrison Hall,3,4,Central,0,,,,,,,1,1,,4,Birge Path,Berkeley,CA,Alameda,USA,94720,N,200,-122.256484163563,37.8708761244732,2144323.70644545,6054693.8961128,16160.984375,570.700707503474,{1E20B56E-DD88-4C6C-B453-08D1CA5F341A},2020-11-03 22:11:44.000001,1678122_CAL,2020-11-03 22:11:44.000001,1678122_CAL
1302,Minor Hall Addition,Minor Hall Addition,5,2,Central,0,,,,,,,1,1,,4,200 Optometry Ln,Berkeley,CA,Alameda,USA,94720,S,200,-122.255139387163,37.8714062967445,2144509.44066043,6055085.61563603,22912.083984375,958.3893254008344,{E1F5B031-1D63-4562-AB33-3C0F8E8A67D3},2020-11-03 22:11:44.000001,1678122_CAL,2020-11-03 22:11:44.000001,1678122_CAL
1318,Evans Diamond Bleachers,Batting Shed,1,,Central,0,,,,,,,1,1,,2,Frank Schlessinger Way,Berkeley,CA,Alameda,USA,94720,S,700,-122.263947814023,37.8699391926926,2144023.12249161,6052533.47669004,9404.4658203125,635.916225612592,{F72A49BB-4A71-4488-B3CC-2152BB6428E8},2020-11-03 22:11:44.000001,1678122_CAL,2020-11-03 22:11:44.000001,1678122_CAL
1277,Simpson High Performance Center,Simpson High Performance,4,6,Perimeter,0,,,,,,,1,1,,6,2227 Piedmont Ave,Berkeley,CA,Alameda,USA,94720,N,500,-122.251853334356,37.8707884693051,2144266.73998574,6056029.74621784,71779.2890625,1780.9836453087769,{ED7C5384-FFE8-4D3A-BEFB-C90B7CC2193E},2020-11-03 22:11:44.000001,1678122_CAL,2020-11-03 22:11:44.000001,1678122_CAL
1271,Cal Mem. Stadium (Facilities & Classrooms),Cal Stadium,3,6,Perimeter,0,,,,,,,1,1,,6,227 Piedmont Avenue,Berkeley,CA,Alameda,USA,94720,N,500,-122.251440826694,37.8709869178153,2144336.75936605,6056150.14691424,80775.8779296875,1908.7884526478351,{D22922B8-4097-43F6-85D8-334A543A575D},2020-11-03 22:11:44.000001,1678122_CAL,2020-11-03 22:11:44.000001,1678122_CAL
1088,Foothill Hillside Unit 8,2700 Hearst Ave.,4,,Perimeter,0,,,,,,,1,1,,4,2700 Hearst Ave.,Berkeley,CA,Alameda,USA,94720,,,-122.254235823238,37.8746861262396,2145698.61883505,6055368.76555914,11550.3427734375,730.9842441645831,{B6EDF4B2-DD9F-42A9-9ECA-B57D0049072A},2020-11-03 22:11:44.000001,1678122_CAL,2020-11-03 22:11:44.000001,1678122_CAL
1087,Foothill Hillside Unit 7,2700 Hearst Ave.,5,,Perimeter,0,,,,,,,1,1,,4,2700 Hearst Ave.,Berkeley,CA,Alameda,USA,94720,,,-122.254666017166,37.8751589059704,2145873.06886724,6055247.84639002,6337.880859375,388.39891625653445,{119149C1-EF13-4398-B3D6-858A42527873},2020-11-03 22:11:44.000001,1678122_CAL,2020-11-03 22:11:44.000001,1678122_CAL
1323,Davis Hall,Davis Hall,8,1,Central,0,,,,,,,1,1,,5,Davis Hall,Berkeley,CA,Alameda,USA,94720,S,200,-122.258317241516,37.8745099074729,2145656.57066194,6054189.73302723,20236.94140625,664.0700535728399,{D50A065A-B512-4287-A7A8-67B47FAD37B9},2020-11-03 22:11:44.000001,1678122_CAL,2020-11-03 22:11:44.000001,1678122_CAL
1097,Hearst Field Annex A,Hearst Annex B,2,4,Central,0,,,,,,,1,1,,4, 2545-2581 Bancroft Way,Berkeley,CA,Alameda,USA,94720,S,300,-122.257741374652,37.8694304497807,2143804.20181888,6054321.18166544,7264.990234375,367.3823869050504,{DBD65546-589F-4CA6-857C-9322AF726466},2020-11-03 22:11:44.000001,1678122_CAL,2020-11-03 22:11:44.000001,1678122_CAL
1318,Evans Field Dugout,Batting Shed,1,,Central,0,,,,,,,1,1,,2,Frank Schlessinger Way,Berkeley,CA,Alameda,USA,94720,S,700,-122.263947814023,37.8699391926926,2144023.12249161,6052533.47669004,4546.4521484375,393.0733546309681,{A20DC54B-2EFA-4CBA-A781-6D4BCD39D0A7},2020-11-03 22:11:44.000001,1678122_CAL,2020-11-03 22:11:44.000001,1678122_CAL
1398,East Gate Kiosk,East Gate Kiosk,1,3,Central,0,,,,,,,1,1,,,University Drive,Berkeley,CA,Alameda,USA,94720,S,300,-122.256491404306,37.8735223434368,2145287.13827348,6054709.89039928,201.1875,58.66799275128953,{A4A12E90-B0B9-4BB7-90CE-65940700F96E},2020-11-03 22:11:44.000001,1678122_CAL,2020-11-03 22:11:44.000001,1678122_CAL
1233,Cheit Hall,Cheit Hall,4,4,Central,0,,,,,,,1,1,,4,Cheit Lane,Berkeley,CA,Alameda,USA,94720,S,100,-122.254274349851,37.8718173496261,2144654.40882558,6055338.06713162,8871.7177734375,516.1751065399927,{5A295A6C-BC33-4398-B957-A6809F647B75},2020-11-03 22:11:44.000001,1678122_CAL,2020-11-03 22:11:44.000001,1678122_CAL
1778,Bancroft Parking Structure B,Parking Structure B,2,4,Central,0,,,,,,,1,1,,4,2643 Bancroft Way,Berkeley,CA,Alameda,USA,94720,,,-122.255823165409,37.8695895075483,2143851.71557286,6054875.8694122,38058.6337890625,792.8198174369895,{CE8DC4D6-E387-4690-BFAE-FDDB55922C97},2020-11-03 22:11:44.000001,1678122_CAL,2020-11-03 22:11:44.000001,1678122_CAL
1035,Legends Aquatic Center,2214 Bancroft Way,1,6,South,0,,,,,,,1,1,,,2214 Bancroft Way,Berkeley,CA,Alameda,USA,94704,,,-122.265134494451,37.8676397060512,2143192.42248052,6052175.20812987,9926.05859375,770.2248215762013,{E0A58B06-5A78-431E-B605-557DB5E99DC7},2020-11-03 22:11:44.000001,1678122_CAL,2020-11-03 22:11:44.000001,1678122_CAL
1081,La Loma Housing Unit 1,1811 La Loma Ave,2,,Perimeter,0,,,,,,,1,1,,4,1811 La Loma Ave,Berkeley,CA,Alameda,USA,94709,N,900,-122.256523501406,37.8758885023606,2146148.74550403,6054716.79797062,15217.294921875,1036.353314771492,{9B39A067-4367-4E4B-A298-809511F46AD0},2020-11-03 22:11:44.000001,1678122_CAL,2020-11-03 22:11:44.000001,1678122_CAL
1252,Whittier Field,2298 Ellsworth St.,,,East,0,,,,,,,1,1,,4,Whittier Field,Berkeley,CA,Alameda,USA,94720,,,-122.263704478523,37.8669750330524,2142942.65766643,6052583.36366562,2086.7607421875,198.19627617332588,{2B35FA14-D143-4DA4-95BB-1590E91A56D1},2020-11-03 22:11:44.000001,1678122_CAL,2020-11-03 22:11:44.000001,1678122_CAL
3618,Center for Independent Journalism,2481 Hearst Ave.,1,,Perimeter,0,,,,,,,1,,,,2481 Hearst Ave.,Berkeley,CA,Alameda,USA,94709,,,-122.260581333613,37.8752652346786,2145943.84307208,6053541.52799456,5573.244140625,419.1358558537504,{2591F39B-CCAC-43F5-808F-6926AC2897CF},2020-11-03 22:11:44.000001,1678122_CAL,2020-11-03 22:11:44.000001,1678122_CAL
1038,David Blackwell Hall,Blackwell Hall,,,South,0,,,,,,,1,1,,,2401 Durant Ave.,Berkeley,CA,Alameda,USA,94704,,,-122.261079896174,37.8679244974836,2143274.05600807,6053347.35604014,17772.2421875,592.8425453298814,{734B502D-543A-4E3A-842F-CB9A422A7F04},2020-11-03 22:11:44.000001,1678122_CAL,2020-11-03 22:11:44.000001,1678122_CAL
1833,CK14-Theater/Conference,CK14,2,,Clark Kerr,0,,Residential (Group R),,,,,1,1,,,CK14,Berkeley,CA,Alameda,USA,94720,N,600,-122.249871071672,37.8635987427753,2141638.51631685,6056552.87409563,10866.0556640625,478.04173360276064,{8139FB71-2F94-49EB-BB3A-E648EC87DE1E},2020-11-03 22:11:44.000001,1678122_CAL,2020-11-03 22:11:44.000001,1678122_CAL
1832,CK13-Steam Plant,CK13,2,,Clark Kerr,0,,High-Hazard (Group H),,,,,1,1,,,CK13,Berkeley,CA,Alameda,USA,94720,,,-122.248593050482,37.8631316493499,2141461.56912108,6056918.56683109,8669.3232421875,399.7418930461861,{01841725-2BC7-4E10-B62E-B4F70BAEF62D},2020-11-03 22:11:44.000001,1678122_CAL,2020-11-03 22:11:44.000001,1678122_CAL
1836,CK17-Suites,CK17,3,,Clark Kerr,0,,Residential (Group R),,,,,1,1,,,CK17,Berkeley,CA,Alameda,USA,94720,N,900,-122.248373582953,37.8627690402118,2141328.37264389,6056979.44481553,10827.2265625,723.7489856331061,{80850897-2BCB-4C7A-9E2F-5D3C6673F692},2020-11-03 22:11:44.000001,1678122_CAL,2020-11-03 22:11:44.000001,1678122_CAL
1831,CK12-Res. Hall,CK12,3,,Clark Kerr,0,,Residential (Group R),,,,,1,1,,,CK12,Berkeley,CA,Alameda,USA,94720,N,900,-122.249198891083,37.863259083691,2141511.2314966,6056744.57161725,17643.7685546875,931.5398702712378,{213C66C0-FA7F-4987-B483-F8E9CD3BEA47},2020-11-03 22:11:44.000001,1678122_CAL,2020-11-03 22:11:44.000001,1678122_CAL
1835,CK16-Suites,CK16,3,,Clark Kerr,0,,Residential (Group R),,,,,1,1,,,CK16,Berkeley,CA,Alameda,USA,94720,,,-122.249096994562,37.8626208721341,2141278.33206249,6056769.63850784,7957.13671875,624.8543669733286,{54F1B9B3-5EB0-44F7-99C1-74303B9817BD},2020-11-03 22:11:44.000001,1678122_CAL,2020-11-03 22:11:44.000001,1678122_CAL
1834,CK15-Child Care,CK15,1,,Clark Kerr,0,,Educational (Group E),,,,,1,1,,,CK15,Berkeley,CA,Alameda,USA,94720,N,600,-122.249632985372,37.8625638244133,2141260.45522908,6056614.5471495,3653.9091796875,253.63366402646167,{056A1C10-F88A-415A-8E26-5B85D9C030F3},2020-11-03 22:11:44.000001,1678122_CAL,2020-11-03 22:11:44.000001,1678122_CAL
1824,CK5-Child Care,CK5,1,,Clark Kerr,0,,Educational (Group E),,,,,1,1,,,CK5,Berkeley,CA,Alameda,USA,94720,N,000,-122.249565192747,37.8657936104301,2142435.93742976,6056656.09904364,2872.5048828125,260.1357065028156,{1BC9200D-F819-4DBA-8B50-17FBC39FD118},2020-11-03 22:11:44.000001,1678122_CAL,2020-11-03 22:11:44.000001,1678122_CAL
1842,CK25-Gym,CK25,2,,Clark Kerr,0,,Assembly (Group A),,,,,1,1,,,CK25,Berkeley,CA,Alameda,USA,94720,N,500,-122.247202668075,37.8654285125828,2142290.27811141,6057335.4838081,12893.2783203125,507.7426389876751,{28EDED79-2D5F-43CF-9F1E-D1738A6B45DF},2020-11-03 22:11:44.000001,1678122_CAL,2020-11-03 22:11:44.000001,1678122_CAL
,Redwood Gardens Apartments,2298 Ellsworth St.,,,Clark Kerr,0,,Residential (Group R),,,,,-1,-1,,,2951 Derby St.,Berkeley,CA,Alameda,USA,94720,,,-122.263704478523,37.8669750330524,2142942.65766643,6052583.36366562,47037.599609375,2432.9303937559407,{9F23B0DE-2EF3-4B6A-97A2-D04283CBEBF2},2020-11-03 22:11:44.000001,1678122_CAL,2020-11-03 22:11:44.000001,1678122_CAL
2010,CK23-Archives,CK23,1,,Clark Kerr,0,,Storage (Group S),,,,,1,1,,,CK23,Berkeley,CA,Alameda,USA,94720,S,700,-122.247849736679,37.8648472523742,2142082.14995076,6057144.77470776,28022.8935546875,830.3028825853993,{6FD743CE-2F1B-4B5B-AE36-14A249757F48},2020-11-03 22:11:44.000001,1678122_CAL,2020-11-03 22:11:44.000001,1678122_CAL
1837,CK18-Residence,CK18,2,,Clark Kerr,0,,Residential (Group R),,,,,1,1,,,CK18,Berkeley,CA,Alameda,USA,94720,N,900,-122.247675579438,37.8626624297771,2141285.79616055,6057180.1842978,1291.205078125,161.25260559608336,{667215B8-D0E4-4767-81CF-D44BE190F67C},2020-11-03 22:11:44.000001,1678122_CAL,2020-11-03 22:11:44.000001,1678122_CAL
2037,CK24-Rec & Sports,CK24,2,,Clark Kerr,0,,Assembly (Group A),,,,,1,1,,,CK24,Berkeley,CA,Alameda,USA,94720,S,700,-122.247543805143,37.8650438807499,2142152.08613491,6057234.40993185,2161.892578125,191.3976941696852,{7A9AA710-23AD-44DB-9BC6-41A8EFD3F6D2},2020-11-03 22:11:44.000001,1678122_CAL,2020-11-03 22:11:44.000001,1678122_CAL
1825,CK6-Residence,CK6,1,,Clark Kerr,0,,Residential (Group R),,,,,1,1,,,CK6,Berkeley,CA,Alameda,USA,94720,N,900,-122.247311673184,37.8639865131595,2141765.88556659,6057294.21987506,2059.671875,194.2265134279323,{DB2B014C-230E-4BFA-B276-0CFE1D8F882E},2020-11-03 22:11:44.000001,1678122_CAL,2020-11-03 22:11:44.000001,1678122_CAL
1339,Smyth House,Smyth House,4,,Perimeter,0,,,,,,,1,1,,,Smyth Road,Berkeley,CA,Alameda,USA,94270,S,000,-122.247665358312,37.8671381573886,2142915.19218241,6057213.56724603,3390.5107421875,275.1451412402319,{297FBA77-94EE-4EE5-94A4-91CCA5F03C70},2020-11-03 22:11:44.000001,1678122_CAL,2020-11-03 22:11:44.000001,1678122_CAL
1391,Simon Hall,Simon Hall,9,4,Central,0,,,,,,,1,1,,4,215 Bancroft Way,Berkeley,CA,Alameda,USA,94720,S,300,-122.252672311618,37.8699436163482,2143963.58619659,6055787.62881924,7499.1015625,505.3044814421922,{671DD529-0108-4BC2-81E2-15D3942FF248},2020-11-03 22:11:44.000001,1678122_CAL,2020-11-03 22:11:44.000001,1678122_CAL
1639,Electrical Switching Station 6,1975 Gayley Rd.,,,Perimeter,0,,,,,,,1,1,,6,1975 Gayley Rd.,Berkeley,CA,Alameda,USA,94720,,,-122.255350840427,37.8745010927579,2145637.28922871,6055045.72691207,2878.43359375,219.69005160123714,{7BE0C739-F163-478E-A86C-B30183C23B56},2020-11-03 22:11:44.000001,1678122_CAL,2020-11-03 22:11:44.000001,1678122_CAL
1359,Greek Ticket Office,Greek Ticket Office,2,6,Perimeter,0,,,,,,,1,1,,,2001 Gayley Road,Berkeley,CA,Alameda,USA,94720,N,600,-122.25486385976,37.8739657329882,2145439.74801463,6055182.60630453,722.13671875,113.09165078524421,{8A91C2A1-97F2-47EB-B6B3-D3CC2F99DD5E},2020-11-03 22:11:44.000001,1678122_CAL,2020-11-03 22:11:44.000001,1678122_CAL
1359,Greek Main Building,Greek Main Building,2,6,Perimeter,0,,,,,,,1,1,,4,2001 Gayley Road,Berkeley,CA,Alameda,USA,94720,N,600,-122.25486385976,37.8739657329882,2145439.74801463,6055182.60630453,9265.8349609375,908.6561573090565,{9A5F5512-ECFD-4478-B5D1-AB238827C15B},2020-11-03 22:11:44.000001,1678122_CAL,2020-11-03 22:11:44.000001,1678122_CAL
1359,Greek Bowl Seating,Greek Bowl Seating,2,6,Perimeter,0,,,,,,,1,1,,,2001 Gayley Road,Berkeley,CA,Alameda,USA,94720,N,600,-122.25486385976,37.8739657329882,2145439.74801463,6055182.60630453,35379.41796875,761.721324077582,{2D28DA87-BA66-473C-9427-5F4A6D98AF7F},2020-11-03 22:11:44.000001,1678122_CAL,2020-11-03 22:11:44.000001,1678122_CAL
1821,CK2W-Suites,CK2W,2,,Clark Kerr,0,,Residential (Group R),,,,,1,1,,,CK2W,Berkeley,CA,Alameda,USA,94720,N,900,-122.249899939683,37.8647351853823,2142052.40972033,6056552.27924436,10148.037109375,605.4405830634714,{287B9B29-061F-4203-90F4-8028F74F550D},2020-11-03 22:11:44.000001,1678122_CAL,2020-11-03 22:11:44.000001,1678122_CAL
1821,CK2E-Suites,CK2W,2,,Clark Kerr,0,,Residential (Group R),,,,,1,1,,,CK2E,Berkeley,CA,Alameda,USA,94720,N,900,-122.249899939683,37.8647351853823,2142052.40972033,6056552.27924436,16816.7216796875,915.9241365341937,{DADA9F45-C6F6-49DB-BC24-933A3209494F},2020-11-03 22:11:44.000001,1678122_CAL,2020-11-03 22:11:44.000001,1678122_CAL
1822,CK3-Res. Hall,CK3,3,,Clark Kerr,0,,Educational (Group E),,,,,1,1,,,CK3,Berkeley,CA,Alameda,USA,94720,N,900,-122.248938691655,37.8650099296916,2142147.24725856,6056831.58579017,13040.3720703125,686.8702141896089,{C5228B93-3505-4801-AF9E-1C2E780A697F},2020-11-03 22:11:44.000001,1678122_CAL,2020-11-03 22:11:44.000001,1678122_CAL
1820,CK1-Admin,CK1,2,,Clark Kerr,0,,Business (Group B),,,,,1,1,,,CK1,Berkeley,CA,Alameda,USA,94720,S,300,-122.248873749904,37.8642633038936,2141875.07752599,6056845.24915786,9225.1650390625,455.6381191194256,{B3F11E9F-A07C-464D-93EC-7B363BB5B2E8},2020-11-03 22:11:44.000001,1678122_CAL,2020-11-03 22:11:44.000001,1678122_CAL
1827,CK8-Res. Hall,CK8,3,,Clark Kerr,0,,Residential (Group R),,,,,1,1,,,CK8,Berkeley,CA,Alameda,USA,94720,,,-122.248163919855,37.8642303074845,2141859.2364175,6057049.89855133,13681.2939453125,710.8456898226017,{5F4F5C2B-F0C0-4343-A0D0-6456E096AE58},2020-11-03 22:11:44.000001,1678122_CAL,2020-11-03 22:11:44.000001,1678122_CAL
1826,CK7-Res. Hall,CK7,3,,Clark Kerr,0,,Residential (Group R),,,,,1,1,,,CK7,Berkeley,CA,Alameda,USA,94720,N,900,-122.247566772268,37.8638569111559,2141720.07705761,6057219.71081236,10922.31640625,557.880738296088,{1912F7CD-34A6-4866-B8EB-FCF0543DB928},2020-11-03 22:11:44.000001,1678122_CAL,2020-11-03 22:11:44.000001,1678122_CAL
1828,CK9-Suites,CK9,4,,Clark Kerr,0,,Residential (Group R),,,,,1,1,,,CK9,Berkeley,CA,Alameda,USA,94720,,,-122.248077720021,37.8636826601471,2141659.39307889,6057071.05320195,12413.478515625,827.6618019184173,{24767D01-C119-4C11-8B7D-D9CD0B02B1E7},2020-11-03 22:11:44.000001,1678122_CAL,2020-11-03 22:11:44.000001,1678122_CAL
1829,CK10-Dining Hall,CK10,2,,Clark Kerr,0,,Assembly (Group A),,,,,1,1,,,CK10,Berkeley,CA,Alameda,USA,94720,N,600,-122.248660681496,37.8637137147997,2141673.84292856,6056903.00664299,19926.416015625,1254.6867560224168,{7858145A-2103-41E1-9291-A8424D25CDC3},2020-11-03 22:11:44.000001,1678122_CAL,2020-11-03 22:11:44.000001,1678122_CAL
1830,CK11-Suites,CK11,3,,Clark Kerr,0,,Residential (Group R),,,,,1,1,,,CK11,Berkeley,CA,Alameda,USA,94720,N,900,-122.249490156068,37.8638020520285,2141710.47829198,6056664.20013229,10252.71875,516.9203394297007,{B0FEF99F-FFDF-4EB4-904E-2521D5D873E4},2020-11-03 22:11:44.000001,1678122_CAL,2020-11-03 22:11:44.000001,1678122_CAL
1823,CK4-Res. Hall,CK4,3,,Clark Kerr,0,,Residential (Group R),,,,,1,1,,,CK4,Berkeley,CA,Alameda,USA,94720,N,900,-122.248688015823,37.8656037701484,2142362.09096687,6056907.9763251,11689.3447265625,673.2824195240602,{A27038B5-ECEF-46D2-8D36-B05A11AA113B},2020-11-03 22:11:44.000001,1678122_CAL,2020-11-03 22:11:44.000001,1678122_CAL
1658,Underhill Parking and Field,Underhill Parking & Field,5,,South,0,,,,,,,1,,,4,2645-2695 Haste St,Berkeley,CA,Alameda,USA,94704,N,500,-122.25493399198,37.8669549008565,2142887.73715547,6055114.49849058,77496.22265625,1143.9907319801362,{82B76FB6-0C97-4170-9C44-76C94C3B1C4B},2020-11-03 22:11:44.000001,1678122_CAL,2020-11-03 22:11:44.000001,1678122_CAL
1064A,Anna Head Alumni Hall Building A,Anna Head Building A,3,2,South,0,,,,,,,1,1,,4,2537 Haste St.,Berkeley,CA,Alameda,USA,94704,S,700,-122.257105955803,37.8663706250687,2142686.78727435,6054483.64767357,4976.55859375,319.65227724755687,{9B9891E2-B16C-4084-9A2E-1730A1F9711F},2020-11-03 22:11:44.000001,1678122_CAL,2020-11-03 22:11:44.000001,1678122_CAL
1064F,Anna Head Alumni Hall Building D,Anna Head Building D,2,2,South,0,,,,,,,1,1,,4,2538A Channing Way,Berkeley,CA,Alameda,USA,94704,S,300,-122.257077554773,37.8665782800571,2142762.23286631,6054493.26423085,3069.625,299.2942543691053,{E2316A15-6463-4A3B-AF23-F58E4A2F86E4},2020-11-03 22:11:44.000001,1678122_CAL,2020-11-03 22:11:44.000001,1678122_CAL
1955,"Stiles Hall Units A,B,C",2400 Bancroft Way,2,,South,0,,,,,,,1,,,,2400 Bancroft Way,Berkeley,CA,Alameda,USA,94704,S,300,-122.261024834143,37.8682485220196,2143391.72245379,6053365.46746911,12424.462890625,548.4739220165635,{E4FC9ECA-CEE4-4856-A4BF-82A4D3DCF104},2020-11-03 22:11:44.000001,1678122_CAL,2020-11-03 22:11:44.000001,1678122_CAL
1064B,Anna Head Alumni Hall Building B,Anna Head Building B,3,2,South,0,,,,,,,1,1,,4,2420 Bowditch St.,Berkeley,CA,Alameda,USA,94704,S,300,-122.256652451011,37.8665900682806,2142764.22098142,6054616.03578483,4508.9462890625,358.720292048478,{F6418BA9-4688-4E89-8E67-F6806423C8B1},2020-11-03 22:11:44.000001,1678122_CAL,2020-11-03 22:11:44.000001,1678122_CAL
1590,Ellsworth Parking Structure/Channing Courts,2320 Channing Way,2,,South,0,,,,,,,1,,,,2320 Channing Way,Berkeley,CA,Alameda,USA,94704,,,-122.262502703423,37.8659647801961,2142568.32695065,6052923.28334961,64131.8095703125,1231.9025420247608,{A6809D1D-E01B-4757-AE5A-2B9AD6305C58},2020-11-03 22:11:44.000001,1678122_CAL,2020-11-03 22:11:44.000001,1678122_CAL
1804,Ida Sproul Hall,Sproul Hall,10,,South,0,,,,,,,1,1,,2,2400 Durant Ave.,Berkeley,CA,Alameda,USA,94704,N,900,-122.260945142574,37.8669544850816,2142920.17832743,6053379.60135629,4699.6181640625,351.1628219476245,{DCE57197-E6A8-4777-A3BF-B8CFDADB1346},2020-11-03 22:11:44.000001,1678122_CAL,2020-11-03 22:11:44.000001,1678122_CAL
1807,Priestley Hall,Priestley Hall,10,,South,0,,,,,,,1,1,,2,2400 Durant Ave.,Berkeley,CA,Alameda,USA,94704,N,900,-122.259905379858,37.8669404248669,2142909.41400884,6053679.59359747,4418.8212890625,333.81116657334536,{1DD99F06-4F39-4553-8ACC-AF622A5D2166},2020-11-03 22:11:44.000001,1678122_CAL,2020-11-03 22:11:44.000001,1678122_CAL
1806,Spens-Black Hall,Spens-Black Hall,10,,South,0,,,,,,,1,1,,2,2400 Durant Ave.,Berkeley,CA,Alameda,USA,94704,N,900,-122.260027933317,37.8674929512333,2143111.23377688,6053648.00662399,4808.0546875,411.06006106574335,{588677B3-1CFC-456D-91FD-4D6B836909CF},2020-11-03 22:11:44.000001,1678122_CAL,2020-11-03 22:11:44.000001,1678122_CAL
1805,Norton Hall,Norton Hall,10,,South,0,,,,,,,1,1,,2,2400 Durant Ave.,Berkeley,CA,Alameda,USA,94704,N,900,-122.260859084261,37.8673915569112,2143078.83277972,6053407.43312423,4659.2255859375,349.29236355377355,{7F4D1798-31E5-444B-B328-2130A7DC5184},2020-11-03 22:11:44.000001,1678122_CAL,2020-11-03 22:11:44.000001,1678122_CAL
1250,Stadium Garage (& Maxwell Family Field),2205 Piedmont Ave.,1,,Perimeter,0,,,,,,,1,1,,4,2175 Gayley Rd.,Berkeley,CA,Alameda,USA,94720,,,-122.252833622458,37.8723448334474,2144838.65494075,6055757.45002335,65551.7119140625,1110.234028569318,{58F68D81-DA07-4337-96BE-D6A58B280300},2020-11-03 22:11:44.000001,1678122_CAL,2020-11-03 22:11:44.000001,1678122_CAL
1015,Weston Havens House,255 Panoramic Way,2,,Perimeter,0,,,,,,,1,,,,255 Panoramic Way,Berkeley,CA,Alameda,USA,94720,N,000,-122.247358209427,37.8690698121065,2143616.78306569,6057315.34633515,2963.47265625,230.48648156490765,{4F1FA752-3DFD-452E-9189-593E58C91DAB},2020-11-03 22:11:44.000001,1678122_CAL,2020-11-03 22:11:44.000001,1678122_CAL
1015A,West Havens House Garage,255 Panoramic Way,1,,Perimeter,0,,,,,,,1,,,,255 Panoramic Way,Berkeley,CA,Alameda,USA,94720,,,-122.24724470681,37.8691563716064,2143647.68462001,6057348.6921864,1462.7783203125,155.291586515017,{176DDFE6-8754-48A8-AD65-7045581D1D7D},2020-11-03 22:11:44.000001,1678122_CAL,2020-11-03 22:11:44.000001,1678122_CAL
1021,Genevieve McEnerney Hall,1750 Arch St.,4,,Perimeter,0,,,,,,,1,,,,1750 Arch St.,Berkeley,CA,Alameda,USA,94709,S,200,-122.264535308302,37.8766618222249,2146473.78225357,6052410.07741264,1186.3203125,149.9306882741811,{A3B660B6-F1E6-465F-861C-21DAE448A85C},2020-11-03 22:11:44.000001,1678122_CAL,2020-11-03 22:11:44.000001,1678122_CAL
1021A,McEnerney Hall Garage,1750 Arch St.,2,,Smyth Fernwald,0,,,,,,,1,,,,1750 Arch St.,Berkeley,CA,Alameda,USA,94709,,,-122.264373286971,37.8767057012346,2146488.87537864,6052457.13385315,387.33984375,78.76036551905732,{E1E3A30E-C116-4FCC-9BD2-315BDA002BB2},2020-11-03 22:11:44.000001,1678122_CAL,2020-11-03 22:11:44.000001,1678122_CAL
1848,The Convent,1601 Allston Way,2,,Perimeter,0,,,,,,,1,,,,1601 Allston Way,Berkeley,CA,Alameda,USA,94703,N,900,-122.278696289022,37.8682835216298,2143500.92777827,6048265.60472276,7075.3759765625,422.8103454229453,{FE5188EC-97A3-4D0E-A41D-41C42D55333F},2020-11-03 22:11:44.000001,1678122_CAL,2020-11-03 22:11:44.000001,1678122_CAL
3620,2105 Bancraft Way,2105 Bancraft Way,1,,Perimeter,0,,,,,,,,,,,2105 Bancraft Way,Berkeley,CA,Alameda,USA,94704,S,300,-122.267354775371,37.86784534361,2143279.38282683,6051535.82792774,7202.5888671875,352.7365863784064,{5C0C175F-FCEE-4C74-99A3-9E405FF76BCD},2020-11-03 22:11:44.000001,1678122_CAL,2020-11-03 22:11:44.000001,1678122_CAL
1979,The Rajkumar,The Rajkumar,3,,South,0,,,,,,,,,,,2484 Shattuck Ave,Berkeley,CA,Alameda,USA,94704,S,300,-122.267884452667,37.8642600637609,2141977.00423525,6051358.29826514,23485.30859375,729.5777365377146,{810E8408-0F20-4D6B-9437-B12B4E8E5DAE},2020-11-03 22:11:44.000001,1678122_CAL,2020-11-03 22:11:44.000001,1678122_CAL
3624,2180 Dwight Way,2180 Dwight Way,1,,South,0,,,,,,,,,,,2180 Dwight Way,Berkeley,CA,Alameda,USA,94704,S,000,-122.265461803622,37.8639543757513,2141852.51328973,6052055.43000622,14135.66015625,481.1470899716548,{60FD029C-979B-4E7C-9A64-9F7D26797CDF},2020-11-03 22:11:44.000001,1678122_CAL,2020-11-03 22:11:44.000001,1678122_CAL
1072,Hiram Edward Manville Hall,Manville Hall,5,,South,0,,,,,,,,,,,2100 Channing Way,Berkeley,CA,Alameda,USA,94704,N,900,-122.267021967263,37.8656189351932,2142467.01661766,6051616.57304571,18368.244140625,873.8090292381804,{6AB7E23B-2466-4327-924A-2B5161DC5C87},2020-11-03 22:11:44.000001,1678122_CAL,2020-11-03 22:11:44.000001,1678122_CAL
3650,2441 Haste St,2441 Haste St,,,South,0,,,,,,,,,,,2441 Haste St,Berkeley,CA,Alameda,USA,94704,,,-122.258898104165,37.8661952658794,2142632.66290687,6053965.20684276,6053.7802734375,366.4662989538156,{05B18EA0-E7D0-4643-837E-F23F2AAF24D9},2020-11-03 22:11:44.000001,1678122_CAL,2020-11-03 22:11:44.000001,1678122_CAL
1928,2616 Dwight Way,2616 Dwight Way,3,,South,0,,,,,,,,,,,2616 Dwight Way,Berkeley,CA,Alameda,USA,94704,S,300,-122.255399999211,37.8653098802923,2142291.36781796,6054968.76797412,4115.4755859375,314.19141402533023,{C9F3AED6-91D2-4105-9562-4165C06EDB66},2020-11-03 22:11:44.000001,1678122_CAL,2020-11-03 22:11:44.000001,1678122_CAL
1938,2150 Kittredge St,2150 Kittredge St,5,,Perimeter,0,,,,,,,,,,,2150 Kittredge St,Berkeley,CA,Alameda,USA,94704,S,300,-122.266834541948,37.8683700463751,2143467.57212467,6051689.57871228,6156.115234375,442.19708949962956,{820A5661-9C81-4BF8-8E64-B8CA7781FAE4},2020-11-03 22:11:44.000001,1678122_CAL,2020-11-03 22:11:44.000001,1678122_CAL
1977,Golden Bear Building (UC Berkeley Extension),1995 University Avenue,7,,Perimeter,0,,,,,,,,,,,1995 University Avenue,Berkeley,CA,Alameda,USA,94704,S,300,-122.271277208803,37.8720723664923,2144839.6891364,6050432.91002885,34041.46484375,834.1889541658784,{0C846CAD-0A32-4133-96CA-553218819D8C},2020-11-03 22:11:44.000001,1678122_CAL,2020-11-03 22:11:44.000001,1678122_CAL
3617,The Promenade,The Promenade,3,,Perimeter,0,,,,,,,,,,,1936 University Ave,Berkeley,CA,Alameda,USA,94704,S,300,-122.272123384009,37.8711991145472,2144526.39369415,6050182.69002173,15886.943359375,844.9636166556716,{8547FE3E-139F-4AF4-95D7-1948C9477B63},2020-11-03 22:11:44.000001,1678122_CAL,2020-11-03 22:11:44.000001,1678122_CAL
3637,Kress Building,Kress Building,4,,Perimeter,0,,,,,,,,,,,2087 Addison St,Berkeley,CA,Alameda,USA,94704,S,300,-122.268732691726,37.8712760762185,2144535.89887657,6051161.7579031,7866.970703125,407.15006931480673,{8EC17BF6-A51C-43EA-A359-43112DA2F90C},2020-11-03 22:11:44.000001,1678122_CAL,2020-11-03 22:11:44.000001,1678122_CAL
3625,2080 Addison Street,2080 Addison St,4,,Perimeter,0,,,,,,,,,,,2080 Addison St,Berkeley,CA,Alameda,USA,94704,S,300,-122.268966060465,37.8708228391171,2144372.16504419,6051091.28949414,3087.7890625,317.1394560501006,{22998815-9962-409C-BE36-26057236FABA},2020-11-03 22:11:44.000001,1678122_CAL,2020-11-03 22:11:44.000001,1678122_CAL
3622,2140 Shattuck Avenue,2140 Shattuck Ave,11,,Perimeter,0,,,,,,,,,,,2140 Shattuck Ave,Berkeley,CA,Alameda,USA,94704,S,200,-122.268517630782,37.8704373954156,2144229.39315659,6051218.05282087,5096.4140625,287.3978883925092,{2C5FDEE8-549E-4070-B86A-AC8DD8B4EC8D},2020-11-03 22:11:44.000001,1678122_CAL,2020-11-03 22:11:44.000001,1678122_CAL
3635,2130 Center Street,2130 Center St,4,,Perimeter,0,,,,,,,,,,,2130 Center St,Berkeley,CA,Alameda,USA,94704,S,300,-122.267059574316,37.8701710082359,2144124.46184757,6051637.01442897,5995.3525390625,362.7555998082693,{CA954136-9655-47E8-8BDC-94AC04A7A126},2020-11-03 22:11:44.000001,1678122_CAL,2020-11-03 22:11:44.000001,1678122_CAL
1950,Berkeley Skydeck,Berkeley Skydeck,13,,Perimeter,0,,,,,,,,,,,2150 Shattuck Avenue,Berkeley,CA,Alameda,USA,94704,S,300,-122.26864361977,37.8700234818948,2144079.38994986,6051178.84436585,15019.0537109375,521.8427164330724,{CF6837E8-C1F4-4F7E-852F-821766A240DF},2020-11-03 22:11:44.000001,1678122_CAL,2020-11-03 22:11:44.000001,1678122_CAL
3643,2150 Allston Way,2150 Allston Way,4,,Perimeter,0,,,,,,,,,,,2150 Allston Way,Berkeley,CA,Alameda,USA,94704,S,200,-122.266448194964,37.8694073022544,2143843.09349028,6051808.20959281,14953.3427734375,567.4870164004609,{E29D48A3-58E6-4BA3-A789-895A63852AD7},2020-11-03 22:11:44.000001,1678122_CAL,2020-11-03 22:11:44.000001,1678122_CAL
3629,2121 Allston Way,2121 Allston Way,2,,Perimeter,0,,,,,,,,,,,2121 Allston Way,Berkeley,CA,Alameda,USA,94704,N,600,-122.26686738045,37.8697976637915,2143987.49364988,6051689.91503086,17360.9931640625,541.2771090643953,{34D7C59C-E1C9-44F0-8532-1CCF8E961BB9},2020-11-03 22:11:44.000001,1678122_CAL,2020-11-03 22:11:44.000001,1678122_CAL
3652,2451 Ridge Road,2451 Ridge Rd,,,Perimeter,0,,,,,,,,,,,2451 Ridge Rd,Berkeley,CA,Alameda,USA,94709,,,-122.261072478896,37.8761896857764,2146283.06940076,6053406.12722936,9807.947265625,403.47445859643744,{D562B15C-6000-42D1-8CE5-37F99930A859},2020-11-03 22:11:44.000001,1678122_CAL,2020-11-03 22:11:44.000001,1678122_CAL
1271,,,,,Perimeter,,,,,,,,,,,,,Berkeley,CA,Alameda,USA,94720,,,,,,,253117.5419921875,3435.811946224504,{6F05AC44-BF60-410F-9F8F-5CFF8F43B06D},2020-11-03 22:11:44.000001,1678122_CAL,2020-11-03 22:11:44.000001,1678122_CAL
1498,2000 Carleton Street,,2,,South,,,,,,,,,,,,2000 Carleton St.,Berkeley,CA,Alameda,USA,94720,,,,,,,48230.3076171875,905.6287802512574,{94830A43-2F5D-4E58-91EC-60EFB6304B24},2020-11-03 22:11:44.000001,1678122_CAL,2020-11-03 22:11:44.000001,1678122_CAL
1498,2000 Carleton Street,,1,,South,,,,,,,,,,,,2000 Carleton St.,Berkeley,CA,Alameda,USA,94720,,,,,,,12701.224609375,805.0706631513285,{3A8A43A1-3881-4A2F-B50D-3A07AB570261},2020-11-03 22:11:44.000001,1678122_CAL,2020-11-03 22:11:44.000001,1678122_CAL
1775,Jones Child Study Center,2425 Atherton St.,1,2,South,0,,,,,,,1,1,,,2425 Atherton St.,Berkeley,CA,Alameda,USA,94704,N,600,-122.264102254838,37.8657104738858,2142484.4427153,6052459.88125829,5683.33984375,496.05777658749076,{24074A5E-6960-425F-BB28-40F276AE9A7A},2020-11-03 22:11:44.000001,1678122_CAL,2020-11-03 22:12:06,241662_CAL
1761,Barrows Hall,https://bit.ly/3leCFcd,10,4,Central,0,,,,,,,1,1,,2,Barrows Hall,Berkeley,CA,Alameda,USA,94720,S,100,-122.25799236438,37.8701082179286,2144052.31353379,6054253.38087896,32679.6259765625,1135.6060177489478,{FF41BFC6-837A-4481-BECD-AE069B8CE672},2020-11-03 22:11:44.000001,1678122_CAL,2020-11-09 20:48:53,241662_CAL
